{
"type": "FeatureCollection",
"crs": { "type": "name", "properties": { "name": "urn:ogc:def:crs:OGC:1.3:CRS84" } },
"features": [
{ "type": "Feature", "properties": { "Site Name": "Gobabeb (Thermal)", "location_name": "Gobabeb", "country": "Namibia", "longitude": 15.11956, "latitude": -23.6002, "remote_sensing_domain": "Thermal IR", "evaluation_category": "Radiometric", "assessment_types": "Radiometric Calibration Quality (Absolute)", "aoi_shape": "circle", "max_aoi_cloud_pct": 0.0, "max_scene_cloud_pct": 0.0, "aoi_size_km": 30.0, "max_view_angle": 30.0, "min_num_acqs": 5.0, "ideal_num_acqs": 10.0 }, "geometry": { "type": "Polygon", "coordinates": [ [ [ 15.413607871071267, -23.599695234264178 ], [ 15.412275044268338, -23.626259212094382 ], [ 15.40812167652078, -23.652574754581337 ], [ 15.401186117841469, -23.67838823041491 ], [ 15.391533630020406, -23.70345069971518 ], [ 15.379255818034256, -23.727520323887699 ], [ 15.364469801237554, -23.750364712350208 ], [ 15.347317130147465, -23.771763182894762 ], [ 15.327962457401085, -23.791508913080303 ], [ 15.306591974231377, -23.809410960931064 ], [ 15.283411626533891, -23.825296134343269 ], [ 15.258645127236452, -23.839010689975325 ], [ 15.232531784191096, -23.850421844004362 ], [ 15.205324165134391, -23.859419078964393 ], [ 15.177285623361845, -23.865915232919185 ], [ 15.148687709590494, -23.869847359445462 ], [ 15.119807497000863, -23.871177349282256 ], [ 15.090924847620942, -23.869892307009817 ], [ 15.062319649013817, -23.866004678723048 ], [ 15.034269050638123, -23.859552129323376 ], [ 15.007044729256892, -23.850597170732286 ], [ 14.980910212375532, -23.83922654499051 ], [ 14.956118287902818, -23.825550368811495 ], [ 14.932908527068262, -23.809701048670703 ], [ 14.911504946122083, -23.79183197789828 ], [ 14.892113830523749, -23.772116029472819 ], [ 14.874921743231967, -23.750743860260197 ], [ 14.860093736386595, -23.727922044282419 ], [ 14.847771783168486, -23.703871054218826 ], [ 14.838073443983612, -23.678823111723784 ], [ 14.831090778390703, -23.653019928281324 ], [ 14.826889511421111, -23.626710359206339 ], [ 14.825508460168223, -23.600147994040636 ], [ 14.826959223788281, -23.573588706987874 ], [ 14.831226137388166, -23.547288191185554 ], [ 14.8382664877058, -23.521499500537626 ], [ 14.848010986038302, -23.496470622535071 ], [ 14.860364491558386, -23.472442104986513 ], [ 14.875206975994526, -23.44964475887905 ], [ 14.892394718642896, -23.428297458702485 ], [ 14.911761718834555, -23.408605060512091 ], [ 14.933121311301903, -23.390756456787859 ], [ 14.956267968374192, -23.374922785785166 ], [ 14.980979271581162, -23.361255811576054 ], [ 15.007018034054559, -23.349886489364135 ], [ 15.034134554085629, -23.340923728933191 ], [ 15.062068979320276, -23.334453367273301 ], [ 15.090553760348579, -23.330537359531121 ], [ 15.119316171869423, -23.329213195469013 ], [ 15.148080879181688, -23.330493546602614 ], [ 15.176572527468597, -23.33436614713543 ], [ 15.2045183312009, -23.340793909735041 ], [ 15.231650640985952, -23.349715275114658 ], [ 15.2577094653341, -23.361044792310736 ], [ 15.282444925101215, -23.374673924497554 ], [ 15.305619618797794, -23.390472073167029 ], [ 15.327010877532508, -23.40828781154277 ], [ 15.346412889083723, -23.427950316203109 ], [ 15.363638671468602, -23.449270984075522 ], [ 15.378521877409504, -23.472045220244773 ], [ 15.390918412284316, -23.496054380405013 ], [ 15.400707849494097, -23.52106785029271 ], [ 15.407794628691068, -23.546845243077421 ], [ 15.41210902398341, -23.573138694471638 ], [ 15.413607871071267, -23.599695234264178 ] ] ] } },
{ "type": "Feature", "properties": { "Site Name": "Lake Tahoe", "location_name": "California", "country": "USA", "longitude": -120.0, "latitude": 39.0, "remote_sensing_domain": "Thermal IR", "evaluation_category": "Radiometric", "assessment_types": "Radiometric calibration", "aoi_shape": "circle", "max_aoi_cloud_pct": 0.0, "max_scene_cloud_pct": 0.0, "aoi_size_km": 30.0, "max_view_angle": 30.0, "min_num_acqs": 5.0, "ideal_num_acqs": 10.0 }, "geometry": { "type": "Polygon", "coordinates": [ [ [ -119.965403033924417, 38.9991044795715 ], [ -119.965682741423493, 38.996462737143204 ], [ -119.966292884219129, 38.993855104271248 ], [ -119.967227552175714, 38.991306687426416 ], [ -119.968477713376885, 38.988842020403538 ], [ -119.970031302279651, 38.986484828388718 ], [ -119.971873336900885, 38.984257799892397 ], [ -119.973986063870328, 38.982182368728587 ], [ -119.976349129923676, 38.980278508121359 ], [ -119.978939778164474, 38.978564538901139 ], [ -119.981733067195378, 38.977056953617208 ], [ -119.984702111010122, 38.975770258238867 ], [ -119.987818337347306, 38.974716832949504 ], [ -119.991051762040399, 38.973906813355377 ], [ -119.994371276753043, 38.973347993236267 ], [ -119.997744947367977, 38.973045749760892 ], [ -120.00114032020214, 38.973002991876889 ], [ -120.004524733149353, 38.973220132365697 ], [ -120.007865628808375, 38.973695083828687 ], [ -120.011130866634616, 38.974423278645013 ], [ -120.014289031163159, 38.975397712714162 ], [ -120.017309733384522, 38.976609012571529 ], [ -120.020163902415575, 38.978045525243623 ], [ -120.022824064694802, 38.979693429993155 ], [ -120.025264608042818, 38.981536870896548 ], [ -120.027462028065045, 38.983558108996718 ], [ -120.029395154533873, 38.985737692587101 ], [ -120.031045355569418, 38.988054644007768 ], [ -120.032396717640708, 38.99048666117563 ], [ -120.033436199633201, 38.993010331926428 ], [ -120.034153759467145, 38.995601359121586 ], [ -120.034542452008665, 38.998234794365729 ], [ -120.034598497284634, 39.00088527809514 ], [ -120.034321318293351, 39.003527283731472 ], [ -120.033713547993003, 39.006135363552779 ], [ -120.032781005345612, 39.008684393912311 ], [ -120.031532640593099, 39.011149817438216 ], [ -120.029980450242007, 39.013507879872456 ], [ -120.028139362529814, 39.015735859254868 ], [ -120.026027094437538, 39.017812285229411 ], [ -120.02366398159505, 39.019717146342067 ], [ -120.021072782696749, 39.02143208331352 ], [ -120.018278460301318, 39.02294056640433 ], [ -120.015307940126633, 39.02422805514297 ], [ -120.012189851169737, 39.025282138857634 ], [ -120.00895424917654, 39.026092656639094 ], [ -120.005632326155904, 39.02665179556255 ], [ -120.002256108775057, 39.026954166207737 ], [ -119.998858148587956, 39.026996854739949 ], [ -119.995471207131388, 39.02677945104292 ], [ -119.992127938975884, 39.026304052630216 ], [ -119.988860575839794, 39.025575244298722 ], [ -119.985700614862552, 39.024600053726068 ], [ -119.982678514090153, 39.023387883448827 ], [ -119.979823398151254, 39.021950419890317 ], [ -119.977162776996394, 39.020301520329852 ], [ -119.974722280439238, 39.018457078921024 ], [ -119.972525411076106, 39.016434873069819 ], [ -119.970593317972956, 39.014254391672921 ], [ -119.968944593298033, 39.011936646892416 ], [ -119.967595093846484, 39.00950397129975 ], [ -119.966557789153441, 39.006979802362039 ], [ -119.965842637626324, 39.004388456362904 ], [ -119.965456491849139, 39.001754893949112 ], [ -119.965403033924417, 38.9991044795715 ] ] ] } },
{ "type": "Feature", "properties": { "Site Name": "Oklahoma Ag Station", "location_name": "USDA", "country": "USA", "longitude": -98.04, "latitude": 35.59, "remote_sensing_domain": "Thermal IR", "evaluation_category": "Radiometric", "assessment_types": "Radiometric calibration", "aoi_shape": "circle", "max_aoi_cloud_pct": 0.0, "max_scene_cloud_pct": 0.0, "aoi_size_km": 30.0, "max_view_angle": 30.0, "min_num_acqs": 5.0, "ideal_num_acqs": 10.0 }, "geometry": { "type": "Polygon", "coordinates": [ [ [ -98.006889308073539, 35.589731698575527 ], [ -98.007081477687024, 35.587082078528674 ], [ -98.007590633137099, 35.584460600046107 ], [ -98.008411841284186, 35.581892504994634 ], [ -98.009537166341204, 35.579402518896195 ], [ -98.010955747339338, 35.577014613063419 ], [ -98.01265390362488, 35.574751774074443 ], [ -98.014615267336694, 35.572635782794165 ], [ -98.016820941561122, 35.570687005054886 ], [ -98.01924968262108, 35.56892419599523 ], [ -98.021878104732437, 35.567364319923534 ], [ -98.024680905054453, 35.566022387421896 ], [ -98.027631106973288, 35.564911311241403 ], [ -98.030700319291057, 35.564041782358757 ], [ -98.033859008847685, 35.563422167372394 ], [ -98.037076783980893, 35.563058428212464 ], [ -98.04032268613112, 35.562954064927077 ], [ -98.043565486824491, 35.563110082088201 ], [ -98.046773987218472, 35.563524979136311 ], [ -98.049917317371126, 35.564194764755982 ], [ -98.052965232397682, 35.56511299514716 ], [ -98.055888402705691, 35.566270835829549 ], [ -98.058658695553234, 35.567657146394858 ], [ -98.061249445253708, 35.569258587402942 ], [ -98.063635709452313, 35.571059748407755 ], [ -98.065794509026873, 35.573043295896454 ], [ -98.067705049314469, 35.575190139735369 ], [ -98.069348920536214, 35.577479616538248 ], [ -98.070710275484217, 35.579889688209256 ], [ -98.071775982744512, 35.582397153766244 ], [ -98.072535753957382, 35.58497787242009 ], [ -98.072982243859002, 35.587606995775893 ], [ -98.073111122104365, 35.590259206930554 ], [ -98.072921116138161, 35.592908964172288 ], [ -98.072414024656197, 35.595530746939694 ], [ -98.07159470148099, 35.598099301672434 ], [ -98.070471009961238, 35.600589885183339 ], [ -98.069053748289832, 35.602978503201562 ], [ -98.067356546419489, 35.605242141780074 ], [ -98.065395735533656, 35.607358989326272 ], [ -98.063190191301132, 35.60930864710199 ], [ -98.060761152403416, 35.611072326149333 ], [ -98.058132016070303, 35.612633028726819 ], [ -98.055328112589606, 35.613975712490159 ], [ -98.052376460968929, 35.615087435817713 ], [ -98.049305508117357, 35.615957482863237 ], [ -98.046144854082712, 35.616577467115569 ], [ -98.042924966021104, 35.616941412453848 ], [ -98.039676883690817, 35.61704581090666 ], [ -98.036431919348914, 35.616889656550534 ], [ -98.033221354985784, 35.616474455217357 ], [ -98.030076139860611, 35.61580420991605 ], [ -98.02702659129659, 35.614885382112028 ], [ -98.024102101662208, 35.613726829243802 ], [ -98.021330854400247, 35.612339719088645 ], [ -98.018739551874901, 35.610737421814441 ], [ -98.016353157685671, 35.608935380773133 ], [ -98.014194655950106, 35.606950963296853 ], [ -98.012284829885303, 35.604803292952404 ], [ -98.010642061822892, 35.602513064888164 ], [ -98.009282156576916, 35.600102346070486 ], [ -98.008218189850098, 35.59759436235101 ], [ -98.007460383114463, 35.595013274431516 ], [ -98.007016006140134, 35.592383944897541 ], [ -98.006889308073539, 35.589731698575527 ] ] ] } },
{ "type": "Feature", "properties": { "Site Name": "Salton Sea", "location_name": "So California", "country": "USA", "longitude": -115.824, "latitude": 33.225, "remote_sensing_domain": "Thermal IR", "evaluation_category": "Radiometric", "assessment_types": "Radiometric calibration", "aoi_shape": "circle", "max_aoi_cloud_pct": 0.0, "max_scene_cloud_pct": 0.0, "aoi_size_km": 30.0, "max_view_angle": 30.0, "min_num_acqs": 5.0, "ideal_num_acqs": 10.0 }, "geometry": { "type": "Polygon", "coordinates": [ [ [ -115.791810609043125, 33.224691532541641 ], [ -115.792002060873344, 33.22204126944299 ], [ -115.792501635530925, 33.219419537232191 ], [ -115.793304495503079, 33.216851580399002 ], [ -115.794402884830234, 33.214362123519741 ], [ -115.795786204719988, 33.211975133387213 ], [ -115.797441116412855, 33.209713588506851 ], [ -115.799351670278568, 33.20759925816693 ], [ -115.801499459875814, 33.205652493196787 ], [ -115.80386379947393, 33.203892030411929 ], [ -115.806421923317714, 33.202334812613266 ], [ -115.809149204714032, 33.200995825856495 ], [ -115.812019392836987, 33.199887955542252 ], [ -115.815004864984957, 33.199021862697087 ], [ -115.818076891881262, 33.198405881622598 ], [ -115.82120591349134, 33.198045939885937 ], [ -115.824361822732953, 33.197945501412761 ], [ -115.82751425438434, 33.198105533223718 ], [ -115.830632876447723, 33.19852449613127 ], [ -115.833687681203074, 33.199198359486047 ], [ -115.836649273189622, 33.200120639833571 ], [ -115.83948915138042, 33.201282463115305 ], [ -115.842179982867535, 33.202672649824116 ], [ -115.844695865452778, 33.204277822305507 ], [ -115.847012576639315, 33.206082533185466 ], [ -115.849107806644312, 33.208069413703328 ], [ -115.850961373198601, 33.210219340537883 ], [ -115.852555416066949, 33.212511619537018 ], [ -115.853874569410024, 33.214924184598317 ], [ -115.85490611031419, 33.217433809801165 ], [ -115.855640082038477, 33.220016332761993 ], [ -115.856069390763537, 33.222646887073878 ], [ -115.856189874878751, 33.225300141602169 ], [ -115.856000346102647, 33.227950544338427 ], [ -115.855502602000499, 33.23057256846824 ], [ -115.854701409737942, 33.233140958283592 ], [ -115.853604461185441, 33.235630972568934 ], [ -115.852222299767234, 33.238018623110655 ], [ -115.850568219723385, 33.240280906024211 ], [ -115.848658138724304, 33.24239602365909 ], [ -115.846510445039272, 33.244343594930719 ], [ -115.844145820713024, 33.24610485203786 ], [ -115.841587042442626, 33.247662821654217 ], [ -115.838858762070473, 33.249002488832176 ], [ -115.835987268812445, 33.250110942022872 ], [ -115.833000235525802, 33.2509774978001 ], [ -115.829926451480915, 33.251593804072037 ], [ -115.826795544238621, 33.251953920774369 ], [ -115.823637693344992, 33.2520543772576 ], [ -115.820483338638468, 33.251894205808938 ], [ -115.817362886018799, 33.251474950982143 ], [ -115.814306413553297, 33.250800654644891 ], [ -115.811343380791982, 33.249877816890958 ], [ -115.808502344129934, 33.248715333199684 ], [ -115.805810680994455, 33.247324408457423 ], [ -115.803294325543533, 33.245718448680883 ], [ -115.800977518445848, 33.243912931499402 ], [ -115.798882573170033, 33.241925256659364 ], [ -115.797029661043183, 33.239774578007335 ], [ -115.795436617151211, 33.237481618587331 ], [ -115.794118768943363, 33.235068470649921 ], [ -115.793088789177574, 33.232558382515329 ], [ -115.792356574601229, 33.22997553435733 ], [ -115.791929151507418, 33.227344805079937 ], [ -115.791810609043125, 33.224691532541641 ] ] ] } },
{ "type": "Feature", "properties": { "Site Name": "Algodones Dunes", "location_name": "So California", "country": "USA", "longitude": -115.07, "latitude": 32.95, "remote_sensing_domain": "Thermal IR", "evaluation_category": "Radiometric", "assessment_types": "Radiometric calibration", "aoi_shape": "circle", "max_aoi_cloud_pct": 0.0, "max_scene_cloud_pct": 0.0, "aoi_size_km": 30.0, "max_view_angle": 30.0, "min_num_acqs": 5.0, "ideal_num_acqs": 10.0 }, "geometry": { "type": "Polygon", "coordinates": [ [ [ -115.037922285053469, 32.949500175643749 ], [ -115.038135322331811, 32.946851685079999 ], [ -115.038655195205649, 32.944233550148581 ], [ -115.039476871326755, 32.941670980202439 ], [ -115.040592414296199, 32.939188647514271 ], [ -115.041991060986319, 32.936810449926426 ], [ -115.043659325955872, 32.934559281024093 ], [ -115.045581131923583, 32.932456810032818 ], [ -115.04773796502073, 32.930523273545347 ], [ -115.050109053311559, 32.928777281068037 ], [ -115.052671566854173, 32.927235636242649 ], [ -115.05540083737435, 32.925913175448294 ], [ -115.058270595444611, 32.92482262532149 ], [ -115.061253222899111, 32.923974480551315 ], [ -115.064320018075506, 32.923376903112377 ], [ -115.067441471357895, 32.923035643895005 ], [ -115.070587548400141, 32.922953987478124 ], [ -115.073727978339306, 32.923132720570869 ], [ -115.076832544263169, 32.923570124424046 ], [ -115.079871373174655, 32.924261991284851 ], [ -115.082815222700688, 32.925201664740413 ], [ -115.085635761821891, 32.926380103568178 ], [ -115.088305842953559, 32.927785968488024 ], [ -115.090799762786958, 32.929405730993011 ], [ -115.093093509401967, 32.931223803224555 ], [ -115.095164993287611, 32.933222687657384 ], [ -115.096994260054601, 32.935383145168935 ], [ -115.098563682792104, 32.93768437989192 ], [ -115.099858132209107, 32.940104239085777 ], [ -115.100865122908104, 32.942619426118284 ], [ -115.101574934359363, 32.945205724519475 ], [ -115.101980705384008, 32.94783823096234 ], [ -115.102078501201873, 32.950491594935421 ], [ -115.101867352361822, 32.953140262805626 ], [ -115.101349265139362, 32.95575872392353 ], [ -115.100529203261203, 32.958321756401055 ], [ -115.099415041091817, 32.960804670190662 ], [ -115.098017488695575, 32.963183545118639 ], [ -115.096349989460521, 32.965435461569996 ], [ -115.094428591241197, 32.967538721591332 ], [ -115.092271792236701, 32.969473058267923 ], [ -115.089900363072559, 32.97121983134258 ], [ -115.087337146790205, 32.972762207175627 ], [ -115.084606838669686, 32.974085321295746 ], [ -115.081735748012889, 32.975176421959411 ], [ -115.07875154419618, 32.976024993320749 ], [ -115.075682989460631, 32.976622857011449 ], [ -115.072559661041055, 32.976964251140672 ], [ -115.069411665344163, 32.977045885944918 ], [ -115.066269346965697, 32.976866975545583 ], [ -115.063162995389646, 32.976429245505699 ], [ -115.060122552234759, 32.97573691611322 ], [ -115.057177321908569, 32.974796661555878 ], [ -115.054355688493843, 32.973617545387654 ], [ -115.051684841628344, 32.972210932918529 ], [ -115.04919051404751, 32.970590381383332 ], [ -115.04689673334093, 32.968771508962647 ], [ -115.044825590329594, 32.966771843932591 ], [ -115.042997026303127, 32.964610655413594 ], [ -115.041428641166462, 32.96230876736518 ], [ -115.040135524336065, 32.959888357634767 ], [ -115.039130109998936, 32.957372744011437 ], [ -115.03842205810615, 32.954786159358719 ], [ -115.038018162217725, 32.95215351800416 ], [ -115.037922285053469, 32.949500175643749 ] ] ] } }
]
}
