{
"type": "FeatureCollection",
"crs": { "type": "name", "properties": { "name": "urn:ogc:def:crs:OGC:1.3:CRS84" } },
"features": [
{ "type": "Feature", "properties": { "site_id": null, "Site Name abbrev": null, "Site Name": "Baoshan", "Location Name": "Baoshan", "Country": "China", "Program Use": "CSDA", "Longitude": 99.1672, "Latitude": 25.0547, "Remote Sensing Domain": "Optical Multi/Hyper", "Priority Level": "high", "Evaluation Category": "Geometric", "Source": "NASA", "Surface Domain": "Land", "Assessment type(s)": "Geometric Calibration Quality (pointing site )", "Resolution Category": "< 30 m", "aoi_shape": "box", "aoi_size_km": 3.0, "max_view_angle": 30.0, "min_num_acqs": 5.0, "ideal_num_acqs": 5.0, "max_cloud_pct_aoi": 0.0, "max_cloud_pct_scene": 15.0, "contact": null, "reference": null, "notes": null, "area_km2": 8.999999999999039, "feature_type": "site", "parent_site": null, " Location": null, "cr:id": null, "cr:lat": null, "cr:lon": null, "cr:height_above_ellipsoid_m": null, "cr:orientation_deg": null, "cr:elevation_angle_d": null, "cr:size_m": null }, "geometry": { "type": "Polygon", "coordinates": [ [ [ 99.182051288526708, 25.041136032190757 ], [ 99.182091313856816, 25.06822897240583 ], [ 99.152345442300287, 25.068262474673055 ], [ 99.152311955316179, 25.041169493351905 ], [ 99.182051288526708, 25.041136032190757 ] ] ] } },
{ "type": "Feature", "properties": { "site_id": null, "Site Name abbrev": null, "Site Name": "Cairns", "Location Name": "Cairns", "Country": "Australia", "Program Use": "CSDA", "Longitude": 145.7649, "Latitude": -16.926, "Remote Sensing Domain": "Optical Multi/Hyper", "Priority Level": "high", "Evaluation Category": "Geometric", "Source": "NASA", "Surface Domain": "Land", "Assessment type(s)": "Geometric Calibration Quality (pointing site )", "Resolution Category": "< 30 m", "aoi_shape": "box", "aoi_size_km": 3.0, "max_view_angle": 30.0, "min_num_acqs": 5.0, "ideal_num_acqs": 5.0, "max_cloud_pct_aoi": 0.0, "max_cloud_pct_scene": 15.0, "contact": null, "reference": null, "notes": null, "area_km2": 9.0000000000003499, "feature_type": "site", "parent_site": null, " Location": null, "cr:id": null, "cr:lat": null, "cr:lon": null, "cr:height_above_ellipsoid_m": null, "cr:orientation_deg": null, "cr:elevation_angle_d": null, "cr:size_m": null }, "geometry": { "type": "Polygon", "coordinates": [ [ [ 145.778895819161818, -16.939640922218622 ], [ 145.779070601915663, -16.912528271852246 ], [ 145.750906195519491, -16.91235823395991 ], [ 145.750727383403074, -16.939470595794543 ], [ 145.778895819161818, -16.939640922218622 ] ] ] } },
{ "type": "Feature", "properties": { "site_id": null, "Site Name abbrev": null, "Site Name": "Copiapo", "Location Name": "Copiapo", "Country": "Chile", "Program Use": "CSDA", "Longitude": -70.3189, "Latitude": -27.3681, "Remote Sensing Domain": "Optical Multi/Hyper", "Priority Level": "high", "Evaluation Category": "Geometric", "Source": "NASA", "Surface Domain": "Land", "Assessment type(s)": "Geometric Calibration Quality (pointing site )", "Resolution Category": "< 30 m", "aoi_shape": "box", "aoi_size_km": 3.0, "max_view_angle": 30.0, "min_num_acqs": 5.0, "ideal_num_acqs": 5.0, "max_cloud_pct_aoi": 0.0, "max_cloud_pct_scene": 15.0, "contact": null, "reference": null, "notes": null, "area_km2": 8.9999999999992149, "feature_type": "site", "parent_site": null, " Location": null, "cr:id": null, "cr:lat": null, "cr:lon": null, "cr:height_above_ellipsoid_m": null, "cr:orientation_deg": null, "cr:elevation_angle_d": null, "cr:size_m": null }, "geometry": { "type": "Polygon", "coordinates": [ [ [ -70.303894334534561, -27.381781115841026 ], [ -70.30357702681097, -27.354703792959985 ], [ -70.333901977358465, -27.354417375610431 ], [ -70.334226661295972, -27.381494368230559 ], [ -70.303894334534561, -27.381781115841026 ] ] ] } },
{ "type": "Feature", "properties": { "site_id": null, "Site Name abbrev": null, "Site Name": "Luanda", "Location Name": "Luanda", "Country": "Angola", "Program Use": "CSDA", "Longitude": 13.2315, "Latitude": -8.8541, "Remote Sensing Domain": "Optical Multi/Hyper", "Priority Level": "high", "Evaluation Category": "Geometric", "Source": "NASA", "Surface Domain": "Land", "Assessment type(s)": "Geometric Calibration Quality (pointing site )", "Resolution Category": "< 30 m", "aoi_shape": "box", "aoi_size_km": 3.0, "max_view_angle": 30.0, "min_num_acqs": 5.0, "ideal_num_acqs": 5.0, "max_cloud_pct_aoi": 0.0, "max_cloud_pct_scene": 15.0, "contact": null, "reference": null, "notes": null, "area_km2": 9.0, "feature_type": "site", "parent_site": null, " Location": null, "cr:id": null, "cr:lat": null, "cr:lon": null, "cr:height_above_ellipsoid_m": null, "cr:orientation_deg": null, "cr:elevation_angle_d": null, "cr:size_m": null }, "geometry": { "type": "Polygon", "coordinates": [ [ [ 13.24507077283536, -8.867725533362011 ], [ 13.245199374112868, -8.840602857520093 ], [ 13.2179302251006, -8.840474160562525 ], [ 13.217799627951193, -8.867596435448803 ], [ 13.24507077283536, -8.867725533362011 ] ] ] } },
{ "type": "Feature", "properties": { "site_id": null, "Site Name abbrev": null, "Site Name": "Manta", "Location Name": "Manta", "Country": "Ecuador", "Program Use": "CSDA", "Longitude": -80.7115, "Latitude": -0.9642, "Remote Sensing Domain": "Optical Multi/Hyper", "Priority Level": "high", "Evaluation Category": "Geometric", "Source": "NASA", "Surface Domain": "Land", "Assessment type(s)": "Geometric Calibration Quality (pointing site )", "Resolution Category": "< 30 m", "aoi_shape": "box", "aoi_size_km": 3.0, "max_view_angle": 30.0, "min_num_acqs": 5.0, "ideal_num_acqs": 5.0, "max_cloud_pct_aoi": 0.0, "max_cloud_pct_scene": 15.0, "contact": null, "reference": null, "notes": null, "area_km2": 8.9930310854541666, "feature_type": "site", "parent_site": null, " Location": null, "cr:id": null, "cr:lat": null, "cr:lon": null, "cr:height_above_ellipsoid_m": null, "cr:orientation_deg": null, "cr:elevation_angle_d": null, "cr:size_m": null }, "geometry": { "type": "Polygon", "coordinates": [ [ [ -80.69802332169202, -0.977765476064747 ], [ -80.698023428374626, -0.950634469156872 ], [ -80.724976571625376, -0.950634469156872 ], [ -80.724976678307996, -0.977765476064747 ], [ -80.69802332169202, -0.977765476064747 ] ] ] } },
{ "type": "Feature", "properties": { "site_id": null, "Site Name abbrev": null, "Site Name": "Mexico City", "Location Name": "Mexico City", "Country": "Mexico", "Program Use": "CSDA", "Longitude": -99.0918, "Latitude": 19.4314, "Remote Sensing Domain": "Optical Multi/Hyper", "Priority Level": "high", "Evaluation Category": "Geometric", "Source": "NASA", "Surface Domain": "Land", "Assessment type(s)": "Geometric Calibration Quality (pointing site )", "Resolution Category": "< 30 m", "aoi_shape": "box", "aoi_size_km": 3.0, "max_view_angle": 30.0, "min_num_acqs": 5.0, "ideal_num_acqs": 5.0, "max_cloud_pct_aoi": 0.0, "max_cloud_pct_scene": 15.0, "contact": null, "reference": null, "notes": null, "area_km2": 8.9999999999986908, "feature_type": "site", "parent_site": null, " Location": null, "cr:id": null, "cr:lat": null, "cr:lon": null, "cr:height_above_ellipsoid_m": null, "cr:orientation_deg": null, "cr:elevation_angle_d": null, "cr:size_m": null }, "geometry": { "type": "Polygon", "coordinates": [ [ [ -99.077504564735108, 19.417850774320051 ], [ -99.07751742640383, 19.444962531908974 ], [ -99.106097806279678, 19.444948069902367 ], [ -99.106080202581438, 19.417836334052236 ], [ -99.077504564735108, 19.417850774320051 ] ] ] } },
{ "type": "Feature", "properties": { "site_id": null, "Site Name abbrev": null, "Site Name": "Mogadishu", "Location Name": "Somalia", "Country": "Somalia", "Program Use": "CSDA", "Longitude": 45.3457, "Latitude": 2.0439, "Remote Sensing Domain": "Optical Multi/Hyper", "Priority Level": "high", "Evaluation Category": "Geometric", "Source": "NASA", "Surface Domain": "Land", "Assessment type(s)": "Geometric Calibration Quality (pointing site )", "Resolution Category": "< 30 m", "aoi_shape": "box", "aoi_size_km": 3.0, "max_view_angle": 30.0, "min_num_acqs": 5.0, "ideal_num_acqs": 5.0, "max_cloud_pct_aoi": 0.0, "max_cloud_pct_scene": 15.0, "contact": null, "reference": null, "notes": null, "area_km2": 8.9931307765425075, "feature_type": "site", "parent_site": null, " Location": null, "cr:id": null, "cr:lat": null, "cr:lon": null, "cr:height_above_ellipsoid_m": null, "cr:orientation_deg": null, "cr:elevation_angle_d": null, "cr:size_m": null }, "geometry": { "type": "Polygon", "coordinates": [ [ [ 45.359183137105752, 2.030334573168305 ], [ 45.359183363435399, 2.057465310678619 ], [ 45.332216636564603, 2.057465310678619 ], [ 45.332216862894249, 2.030334573168305 ], [ 45.359183137105752, 2.030334573168305 ] ] ] } },
{ "type": "Feature", "properties": { "site_id": null, "Site Name abbrev": null, "Site Name": "Perth", "Location Name": "Perth", "Country": "Australia", "Program Use": "CSDA", "Longitude": 115.9411, "Latitude": -31.9432, "Remote Sensing Domain": "Optical Multi/Hyper", "Priority Level": "high", "Evaluation Category": "Geometric", "Source": "NASA", "Surface Domain": "Land", "Assessment type(s)": "Geometric Calibration Quality (pointing site )", "Resolution Category": "< 30 m", "aoi_shape": "box", "aoi_size_km": 3.0, "max_view_angle": 30.0, "min_num_acqs": 5.0, "ideal_num_acqs": 5.0, "max_cloud_pct_aoi": 0.0, "max_cloud_pct_scene": 15.0, "contact": null, "reference": null, "notes": null, "area_km2": 8.9999999999939764, "feature_type": "site", "parent_site": null, " Location": null, "cr:id": null, "cr:lat": null, "cr:lon": null, "cr:height_above_ellipsoid_m": null, "cr:orientation_deg": null, "cr:elevation_angle_d": null, "cr:size_m": null }, "geometry": { "type": "Polygon", "coordinates": [ [ [ 115.956815172903518, -31.95686190321749 ], [ 115.957120876610304, -31.92980071984374 ], [ 115.925389475728281, -31.929536223571471 ], [ 115.925074474757963, -31.956597130056853 ], [ 115.956815172903518, -31.95686190321749 ] ] ] } },
{ "type": "Feature", "properties": { "site_id": 1.0, "Site Name abbrev": "Albuquerque", "Site Name": "Albuquerque", "Location Name": "New Mexico", "Country": "USA", "Program Use": "CSDA", "Longitude": -106.613826, "Latitude": 35.068706, "Remote Sensing Domain": "Optical Multi/Hyper", "Priority Level": "high", "Evaluation Category": "Geometric", "Source": "NASA", "Surface Domain": "Land", "Assessment type(s)": "Geometric Calibration Quality (priority pointing site, TS)", "Resolution Category": "< 30 m", "aoi_shape": "box", "aoi_size_km": 3.0, "max_view_angle": 30.0, "min_num_acqs": 10.0, "ideal_num_acqs": 10.0, "max_cloud_pct_aoi": 15.0, "max_cloud_pct_scene": null, "contact": "paul.m.montesano@nasa.gov", "reference": null, "notes": null, "area_km2": 8.9999999999951097, "feature_type": "site", "parent_site": null, " Location": null, "cr:id": null, "cr:lat": null, "cr:lon": null, "cr:height_above_ellipsoid_m": null, "cr:orientation_deg": null, "cr:elevation_angle_d": null, "cr:size_m": null }, "geometry": { "type": "Polygon", "coordinates": [ [ [ -106.59711722255102, 35.055403000748697 ], [ -106.59764422382554, 35.082444473428517 ], [ -106.630540197208248, 35.08200652038721 ], [ -106.630002356415162, 35.054965484420819 ], [ -106.59711722255102, 35.055403000748697 ] ] ] } },
{ "type": "Feature", "properties": { "site_id": null, "Site Name abbrev": "Baotou", "Site Name": "Baotou", "Location Name": "China cal/val", "Country": "China", "Program Use": "CSDA", "Longitude": 109.629437, "Latitude": 40.851787, "Remote Sensing Domain": "Optical Multi/Hyper", "Priority Level": "high", "Evaluation Category": "Radiometric & Geometric", "Source": "RadCalNet", "Surface Domain": "Land", "Assessment type(s)": "Radiometric/Geometric Calibration Quality (LSF/MTF)", "Resolution Category": "< 6 m", "aoi_shape": "box", "aoi_size_km": 0.04, "max_view_angle": 15.0, "min_num_acqs": null, "ideal_num_acqs": null, "max_cloud_pct_aoi": 0.0, "max_cloud_pct_scene": null, "contact": "brian.n.wenny@nasa.gov", "reference": null, "notes": null, "area_km2": 0.0015999999999499414, "feature_type": "site", "parent_site": null, " Location": null, "cr:id": null, "cr:lat": null, "cr:lon": null, "cr:height_above_ellipsoid_m": null, "cr:orientation_deg": null, "cr:elevation_angle_d": null, "cr:size_m": null }, "geometry": { "type": "Polygon", "coordinates": [ [ [ 109.629677920662715, 40.851609700759859 ], [ 109.629670497430169, 40.851969936336722 ], [ 109.629196078053269, 40.851964298711032 ], [ 109.629203503853844, 40.851604063205357 ], [ 109.629677920662715, 40.851609700759859 ] ] ] } },
{ "type": "Feature", "properties": { "site_id": null, "Site Name abbrev": "Belo Horizonte", "Site Name": "Belo Horizonte", "Location Name": "Minas Gerais", "Country": "Brazil", "Program Use": "CSDA", "Longitude": -43.94323, "Latitude": -19.892135, "Remote Sensing Domain": "Optical Multi/Hyper", "Priority Level": "high", "Evaluation Category": "Geometric", "Source": "NASA", "Surface Domain": "Land", "Assessment type(s)": "Geometric Calibration Quality (pointing site)", "Resolution Category": "< 30 m", "aoi_shape": "box", "aoi_size_km": 3.0, "max_view_angle": 30.0, "min_num_acqs": 5.0, "ideal_num_acqs": 5.0, "max_cloud_pct_aoi": 15.0, "max_cloud_pct_scene": null, "contact": "paul.m.montesano@nasa.gov", "reference": null, "notes": null, "area_km2": 8.9999999999998241, "feature_type": "site", "parent_site": null, " Location": null, "cr:id": null, "cr:lat": null, "cr:lon": null, "cr:height_above_ellipsoid_m": null, "cr:orientation_deg": null, "cr:elevation_angle_d": null, "cr:size_m": null }, "geometry": { "type": "Polygon", "coordinates": [ [ [ -43.928811415375364, -19.905602166855537 ], [ -43.928993700440124, -19.878496534338311 ], [ -43.95764614739533, -19.8786665339276 ], [ -43.957468736789195, -19.905772417305631 ], [ -43.928811415375364, -19.905602166855537 ] ] ] } },
{ "type": "Feature", "properties": { "site_id": null, "Site Name abbrev": "Boston", "Site Name": "Boston", "Location Name": "Massachusetts", "Country": "USA", "Program Use": "CSDA", "Longitude": -71.0094, "Latitude": 42.367454, "Remote Sensing Domain": "Optical Multi/Hyper/DEM", "Priority Level": "high", "Evaluation Category": "Geometric", "Source": "NASA", "Surface Domain": "Land", "Assessment type(s)": "Geometric Calibration Quality (priority pointing site, TS)", "Resolution Category": "< 30 m", "aoi_shape": "box", "aoi_size_km": 3.0, "max_view_angle": 30.0, "min_num_acqs": 10.0, "ideal_num_acqs": 10.0, "max_cloud_pct_aoi": 15.0, "max_cloud_pct_scene": null, "contact": "paul.m.montesano@nasa.gov", "reference": null, "notes": null, "area_km2": 9.0000000000029683, "feature_type": "site", "parent_site": null, " Location": null, "cr:id": null, "cr:lat": null, "cr:lon": null, "cr:height_above_ellipsoid_m": null, "cr:orientation_deg": null, "cr:elevation_angle_d": null, "cr:size_m": null }, "geometry": { "type": "Polygon", "coordinates": [ [ [ -70.990767397405904, 42.354270781940642 ], [ -70.991620510362608, 42.381272699863203 ], [ -71.028040389933864, 42.380633993468102 ], [ -71.027171702297451, 42.353632675791467 ], [ -70.990767397405904, 42.354270781940642 ] ] ] } },
{ "type": "Feature", "properties": { "site_id": null, "Site Name abbrev": null, "Site Name": "Kansas City", "Location Name": "Missouri", "Country": "USA", "Program Use": "CSDA", "Longitude": -94.7133, "Latitude": 39.306, "Remote Sensing Domain": "Optical Multi/Hyper", "Priority Level": "high", "Evaluation Category": "Geometric", "Source": "NASA", "Surface Domain": "Land", "Assessment type(s)": "Geometric Calibration Quality (priority pointing site, TS)", "Resolution Category": "> 30 m", "aoi_shape": "box", "aoi_size_km": 3.0, "max_view_angle": 30.0, "min_num_acqs": 10.0, "ideal_num_acqs": 10.0, "max_cloud_pct_aoi": 15.0, "max_cloud_pct_scene": null, "contact": "alana.semple@nasa.gov", "reference": null, "notes": null, "area_km2": 8.9999999999974669, "feature_type": "site", "parent_site": null, " Location": null, "cr:id": null, "cr:lat": null, "cr:lon": null, "cr:height_above_ellipsoid_m": null, "cr:orientation_deg": null, "cr:elevation_angle_d": null, "cr:size_m": null }, "geometry": { "type": "Polygon", "coordinates": [ [ [ -94.695583778826801, 39.292744287836662 ], [ -94.696236108705705, 39.319765065346367 ], [ -94.731022902181394, 39.319252837521979 ], [ -94.730357210286016, 39.292232549432327 ], [ -94.695583778826801, 39.292744287836662 ] ] ] } },
{ "type": "Feature", "properties": { "site_id": null, "Site Name abbrev": null, "Site Name": "San Diego", "Location Name": "California", "Country": "USA", "Program Use": "CSDA", "Longitude": -117.1893, "Latitude": 32.7365, "Remote Sensing Domain": "Optical Multi/Hyper", "Priority Level": "high", "Evaluation Category": "Geometric", "Source": "NASA", "Surface Domain": "Land", "Assessment type(s)": "Geometric Calibration Quality (priority pointing site, TS)", "Resolution Category": "< 30 m", "aoi_shape": "box", "aoi_size_km": 3.0, "max_view_angle": 30.0, "min_num_acqs": 10.0, "ideal_num_acqs": 10.0, "max_cloud_pct_aoi": 15.0, "max_cloud_pct_scene": null, "contact": "alana.semple@nasa.gov", "reference": null, "notes": null, "area_km2": 9.0000000000007851, "feature_type": "site", "parent_site": null, " Location": null, "cr:id": null, "cr:lat": null, "cr:lon": null, "cr:height_above_ellipsoid_m": null, "cr:orientation_deg": null, "cr:elevation_angle_d": null, "cr:size_m": null }, "geometry": { "type": "Polygon", "coordinates": [ [ [ -117.173264086335919, 32.722992062654022 ], [ -117.173316456659464, 32.750054214891264 ], [ -117.205340751912729, 32.75000583851412 ], [ -117.205278705091843, 32.722943736203383 ], [ -117.173264086335919, 32.722992062654022 ] ] ] } },
{ "type": "Feature", "properties": { "site_id": null, "Site Name abbrev": null, "Site Name": "Novosibirsk", "Location Name": "Siberia", "Country": "Russia", "Program Use": "CSDA", "Longitude": 82.641994, "Latitude": 55.011832, "Remote Sensing Domain": "Optical Multi", "Priority Level": "low", "Evaluation Category": "Geometric", "Source": "NASA", "Surface Domain": "Land", "Assessment type(s)": "Geometric Calibration Quality (pointing site)", "Resolution Category": "< 30 m", "aoi_shape": "box", "aoi_size_km": 3.0, "max_view_angle": 30.0, "min_num_acqs": 5.0, "ideal_num_acqs": 5.0, "max_cloud_pct_aoi": 15.0, "max_cloud_pct_scene": null, "contact": "paul.m.montesano@nasa.gov", "reference": null, "notes": null, "area_km2": 9.0000000000024443, "feature_type": "site", "parent_site": null, " Location": null, "cr:id": null, "cr:lat": null, "cr:lon": null, "cr:height_above_ellipsoid_m": null, "cr:orientation_deg": null, "cr:elevation_angle_d": null, "cr:size_m": null }, "geometry": { "type": "Polygon", "coordinates": [ [ [ 82.664881800066567, 54.998039374867645 ], [ 82.665998792650257, 55.024987191281966 ], [ 82.619090491736756, 55.02562039024518 ], [ 82.618004915545853, 54.998671943956545 ], [ 82.664881800066567, 54.998039374867645 ] ] ] } },
{ "type": "Feature", "properties": { "site_id": null, "Site Name abbrev": null, "Site Name": "Konya", "Location Name": "Turkey", "Country": "Turkey", "Program Use": "CSDA", "Longitude": 32.561118, "Latitude": 37.981015, "Remote Sensing Domain": "Optical Multi", "Priority Level": "low", "Evaluation Category": "Geometric", "Source": "NASA", "Surface Domain": "Land", "Assessment type(s)": "Geometric Calibration Quality (pointing site)", "Resolution Category": "< 30 m", "aoi_shape": "box", "aoi_size_km": 3.0, "max_view_angle": 30.0, "min_num_acqs": 5.0, "ideal_num_acqs": 5.0, "max_cloud_pct_aoi": 15.0, "max_cloud_pct_scene": null, "contact": "paul.m.montesano@nasa.gov", "reference": null, "notes": null, "area_km2": 8.9999999999969447, "feature_type": "site", "parent_site": null, " Location": null, "cr:id": null, "cr:lat": null, "cr:lon": null, "cr:height_above_ellipsoid_m": null, "cr:orientation_deg": null, "cr:elevation_angle_d": null, "cr:size_m": null }, "geometry": { "type": "Polygon", "coordinates": [ [ [ 32.578275280119314, 37.967558446660583 ], [ 32.578120516471515, 37.994596499697685 ], [ 32.543954453594914, 37.994468980447834 ], [ 32.544121749814309, 37.967431050625692 ], [ 32.578275280119314, 37.967558446660583 ] ] ] } },
{ "type": "Feature", "properties": { "site_id": null, "Site Name abbrev": null, "Site Name": "Mansoura", "Location Name": "Dakahlia", "Country": "Egypt", "Program Use": "CSDA", "Longitude": 31.405087, "Latitude": 31.054687, "Remote Sensing Domain": "Optical Multi", "Priority Level": "low", "Evaluation Category": "Geometric", "Source": "NASA", "Surface Domain": "Land", "Assessment type(s)": "Geometric Calibration Quality (pointing site)", "Resolution Category": "< 30 m", "aoi_shape": "box", "aoi_size_km": 3.0, "max_view_angle": 30.0, "min_num_acqs": 5.0, "ideal_num_acqs": 5.0, "max_cloud_pct_aoi": 15.0, "max_cloud_pct_scene": null, "contact": "paul.m.montesano@nasa.gov", "reference": null, "notes": null, "area_km2": 8.9999999999988631, "feature_type": "site", "parent_site": null, " Location": null, "cr:id": null, "cr:lat": null, "cr:lon": null, "cr:height_above_ellipsoid_m": null, "cr:orientation_deg": null, "cr:elevation_angle_d": null, "cr:size_m": null }, "geometry": { "type": "Polygon", "coordinates": [ [ [ 31.421025759121154, 31.04135079357911 ], [ 31.420578754874928, 31.068409920548024 ], [ 31.389143797194677, 31.068021056740161 ], [ 31.389599688809305, 31.040962342941128 ], [ 31.421025759121154, 31.04135079357911 ] ] ] } },
{ "type": "Feature", "properties": { "site_id": null, "Site Name abbrev": "Cape Town", "Site Name": "Cape Town", "Location Name": "Cape Town", "Country": "South Africa", "Program Use": "CSDA", "Longitude": 18.507113, "Latitude": -33.992986, "Remote Sensing Domain": "Optical Multi/Hyper", "Priority Level": "high", "Evaluation Category": "Geometric", "Source": "NASA", "Surface Domain": "Land", "Assessment type(s)": "Geometric Calibration Quality (pointing site)", "Resolution Category": "< 30 m", "aoi_shape": "box", "aoi_size_km": 3.0, "max_view_angle": 30.0, "min_num_acqs": 5.0, "ideal_num_acqs": 5.0, "max_cloud_pct_aoi": 15.0, "max_cloud_pct_scene": null, "contact": "paul.m.montesano@nasa.gov", "reference": null, "notes": null, "area_km2": 8.9999999999987779, "feature_type": "site", "parent_site": null, " Location": null, "cr:id": null, "cr:lat": null, "cr:lon": null, "cr:height_above_ellipsoid_m": null, "cr:orientation_deg": null, "cr:elevation_angle_d": null, "cr:size_m": null }, "geometry": { "type": "Polygon", "coordinates": [ [ [ 18.522946784844283, -34.006829615613285 ], [ 18.523731581222741, -33.979798179260449 ], [ 18.491284343788294, -33.979140546272674 ], [ 18.490489290144801, -34.006171316830915 ], [ 18.522946784844283, -34.006829615613285 ] ] ] } },
{ "type": "Feature", "properties": { "site_id": null, "Site Name abbrev": "Casablanca", "Site Name": "Casablanca", "Location Name": "Casablanca", "Country": "Morocco", "Program Use": "CSDA", "Longitude": -7.62242, "Latitude": 33.58037, "Remote Sensing Domain": "Optical Multi/Hyper", "Priority Level": "high", "Evaluation Category": "Geometric", "Source": "NASA", "Surface Domain": "Land", "Assessment type(s)": "Geometric Calibration Quality (priority pointing site)", "Resolution Category": null, "aoi_shape": "box", "aoi_size_km": 3.0, "max_view_angle": 30.0, "min_num_acqs": 5.0, "ideal_num_acqs": 5.0, "max_cloud_pct_aoi": 15.0, "max_cloud_pct_scene": null, "contact": "paul.m.montesano@nasa.gov", "reference": null, "notes": null, "area_km2": 8.9999999999979039, "feature_type": "site", "parent_site": null, " Location": null, "cr:id": null, "cr:lat": null, "cr:lon": null, "cr:height_above_ellipsoid_m": null, "cr:orientation_deg": null, "cr:elevation_angle_d": null, "cr:size_m": null }, "geometry": { "type": "Polygon", "coordinates": [ [ [ -7.606478251188967, 33.566663740867355 ], [ -7.606043342721532, 33.593714314728359 ], [ -7.638366787357827, 33.594074302552229 ], [ -7.638791618731734, 33.567023362143331 ], [ -7.606478251188967, 33.566663740867355 ] ] ] } },
{ "type": "Feature", "properties": { "site_id": null, "Site Name abbrev": "Caspian Sea", "Site Name": "Caspian Sea", "Location Name": "Caspian Sea", "Country": "Caucuses/Asia", "Program Use": "CSDA", "Longitude": 50.9644, "Latitude": 37.8569, "Remote Sensing Domain": "Optical Multi", "Priority Level": "high", "Evaluation Category": "Radiometric", "Source": "NASA", "Surface Domain": "Water", "Assessment type(s)": "Radiometric (zero-point)", "Resolution Category": null, "aoi_shape": "circle", "aoi_size_km": null, "max_view_angle": null, "min_num_acqs": null, "ideal_num_acqs": null, "max_cloud_pct_aoi": null, "max_cloud_pct_scene": null, "contact": "paul.m.montesano@nasa.gov", "reference": null, "notes": null, "area_km2": 28.228936414916642, "feature_type": "site", "parent_site": null, " Location": null, "cr:id": null, "cr:lat": null, "cr:lon": null, "cr:height_above_ellipsoid_m": null, "cr:orientation_deg": null, "cr:elevation_angle_d": null, "cr:size_m": null }, "geometry": { "type": "Polygon", "coordinates": [ [ [ 50.998503441754501, 37.856905371894747 ], [ 50.998339283803908, 37.854255048388175 ], [ 50.997848306949756, 37.851630241998983 ], [ 50.997035273205285, 37.849056227054682 ], [ 50.995908043523315, 37.846557786242691 ], [ 50.994477500901937, 37.844158972189717 ], [ 50.992757444534092, 37.841882876157634 ], [ 50.990764456060262, 37.839751406070803 ], [ 50.98851773924487, 37.837785075996749 ], [ 50.986038934644526, 37.836002809089422 ], [ 50.983351911067587, 37.834421755873962 ], [ 50.980482535838291, 37.833057129602288 ], [ 50.977458426072509, 37.831922060245674 ], [ 50.974308683345512, 37.831027468510513 ], [ 50.971063614282357, 37.830381961073336 ], [ 50.967754439729212, 37.829991748028256 ], [ 50.964412995266429, 37.829860583329094 ], [ 50.961071425902297, 37.82998972879038 ], [ 50.957761877838372, 37.830377941987962 ], [ 50.9545161902237, 37.831021488173789 ], [ 50.951365589815261, 37.831914176092049 ], [ 50.948340391435913, 37.833047417357463 ], [ 50.94546970706913, 37.834410308833455 ], [ 50.942781166352063, 37.835989737229227 ], [ 50.940300651126037, 37.837770504924386 ], [ 50.93805204657609, 37.839735475826458 ], [ 50.936057011341106, 37.841865739876511 ], [ 50.934334768803041, 37.844140794638115 ], [ 50.93290192156978, 37.846538742241414 ], [ 50.931772290952971, 37.849036499804569 ], [ 50.930956783010622, 37.85161002132444 ], [ 50.930463282477014, 37.854234528915164 ], [ 50.930296575641101, 37.856884751180743 ], [ 50.930458302961668, 37.859535166435649 ], [ 50.930946941924944, 37.86216024843754 ], [ 50.931757820361469, 37.864734712267257 ], [ 50.932883160145636, 37.867233757986995 ], [ 50.934312150907061, 37.869633309723802 ], [ 50.936031053089913, 37.871910247867071 ], [ 50.938023329408459, 37.874042632130561 ], [ 50.940269803466059, 37.876009913315521 ], [ 50.942748844035243, 37.877793131717311 ], [ 50.945436573239597, 37.879375100245397 ], [ 50.948307096638082, 37.880740570472888 ], [ 50.951332752991377, 37.881876379995738 ], [ 50.954484381289738, 37.882771579663363 ], [ 50.957731602446643, 37.883417539436721 ], [ 50.96104311291213, 37.883808031838626 ], [ 50.964386987337946, 37.883939292179718 ], [ 50.967730987333624, 37.883810054969992 ], [ 50.971042873289704, 37.883421566159456 ], [ 50.97429071621319, 37.882777571087829 ], [ 50.97744320651973, 37.881884278261396 ], [ 50.980469956758732, 37.880750299311686 ], [ 50.983341795309656, 37.87938656572414 ], [ 50.986031048180728, 37.877806223151424 ], [ 50.988511806163032, 37.876024504345295 ], [ 50.990760174742626, 37.874058581948844 ], [ 50.992754504348902, 37.871927402586429 ], [ 50.994475598716917, 37.869651503869378 ], [ 50.995906899362367, 37.86725281610029 ], [ 50.99703464440811, 37.864754450605105 ], [ 50.997848000257562, 37.862180476749451 ], [ 50.998339164880122, 37.859555689802157 ], [ 50.998503441754501, 37.856905371894747 ] ] ] } },
{ "type": "Feature", "properties": { "site_id": null, "Site Name abbrev": "Catania", "Site Name": "Catania", "Location Name": "Sicily", "Country": "Italy", "Program Use": "CSDA", "Longitude": 15.0654, "Latitude": 37.4699, "Remote Sensing Domain": "Optical Multi/Hyper", "Priority Level": "high", "Evaluation Category": "Geometric", "Source": "NASA", "Surface Domain": "Land", "Assessment type(s)": "Geometric Calibration Quality (pointing site)", "Resolution Category": "< 30 m", "aoi_shape": "box", "aoi_size_km": 3.0, "max_view_angle": 30.0, "min_num_acqs": 5.0, "ideal_num_acqs": 5.0, "max_cloud_pct_aoi": 15.0, "max_cloud_pct_scene": null, "contact": "paul.m.montesano@nasa.gov", "reference": null, "notes": null, "area_km2": 9.0000000000020073, "feature_type": "site", "parent_site": null, " Location": null, "cr:id": null, "cr:lat": null, "cr:lon": null, "cr:height_above_ellipsoid_m": null, "cr:orientation_deg": null, "cr:elevation_angle_d": null, "cr:size_m": null }, "geometry": { "type": "Polygon", "coordinates": [ [ [ 15.082348579440573, 37.456368823157007 ], [ 15.082378248552986, 37.48340993347724 ], [ 15.048445309972644, 37.483428719745127 ], [ 15.048427862033805, 37.456387591185347 ], [ 15.082348579440573, 37.456368823157007 ] ] ] } },
{ "type": "Feature", "properties": { "site_id": null, "Site Name abbrev": "Crater Lake", "Site Name": "Crater Lake", "Location Name": "Crater Lake", "Country": "USA", "Program Use": "CSDA", "Longitude": -122.109167, "Latitude": 42.945278, "Remote Sensing Domain": "Optical Multi", "Priority Level": "high", "Evaluation Category": "Radiometric", "Source": "NASA", "Surface Domain": "Water", "Assessment type(s)": "Radiometric (zero-point)", "Resolution Category": null, "aoi_shape": "circle", "aoi_size_km": null, "max_view_angle": null, "min_num_acqs": null, "ideal_num_acqs": null, "max_cloud_pct_aoi": null, "max_cloud_pct_scene": null, "contact": "paul.m.montesano@nasa.gov", "reference": null, "notes": null, "area_km2": 28.228936414912482, "feature_type": "site", "parent_site": null, " Location": null, "cr:id": null, "cr:lat": null, "cr:lon": null, "cr:height_above_ellipsoid_m": null, "cr:orientation_deg": null, "cr:elevation_angle_d": null, "cr:size_m": null }, "geometry": { "type": "Polygon", "coordinates": [ [ [ -122.072398298398227, 42.944985936416117 ], [ -122.072615092972427, 42.942339732756629 ], [ -122.073183849378665, 42.93972187914386 ], [ -122.074099047246463, 42.937157581401159 ], [ -122.075351833482927, 42.93467152665675 ], [ -122.076930109037818, 42.932287645919352 ], [ -122.078818646728521, 42.93002888403511 ], [ -122.080999238940137, 42.927916979224889 ], [ -122.083450873737931, 42.925972254305442 ], [ -122.086149937667471, 42.924213421583175 ], [ -122.089070443272405, 42.922657403275863 ], [ -122.092184279134742, 42.921319169167873 ], [ -122.095461480039262, 42.920211593037898 ], [ -122.098870514681408, 42.919345329219787 ], [ -122.102378588181907, 42.91872871046391 ], [ -122.105951956538547, 42.918367668065379 ], [ -122.109556250039674, 42.918265675013451 ], [ -122.113156802584683, 42.918423712699791 ], [ -122.116718983803636, 42.918840261499824 ], [ -122.120208530844394, 42.919511315316981 ], [ -122.123591876697546, 42.920430419953036 ], [ -122.126836471959933, 42.921588734943185 ], [ -122.129911096996068, 42.92297511827249 ], [ -122.132786161540608, 42.924576233174143 ], [ -122.135433988898029, 42.926376676000039 ], [ -122.137829082031132, 42.92835912395433 ], [ -122.139948368994382, 42.930504501290258 ], [ -122.141771425352204, 42.932792162394058 ], [ -122.143280671432805, 42.93520009001665 ], [ -122.14446154249606, 42.937705106766991 ], [ -122.145302630144272, 42.940283097851072 ], [ -122.145795793570045, 42.942909242929943 ], [ -122.145936239517113, 42.945558254878087 ], [ -122.145722570124718, 42.948204623153963 ], [ -122.145156798129662, 42.950822859444635 ], [ -122.144244329213237, 42.953387743220638 ], [ -122.14299391159642, 42.955874564832868 ], [ -122.141417553304706, 42.958259363802348 ], [ -122.13953040784132, 42.960519159995812 ], [ -122.137350629318604, 42.96263217544449 ], [ -122.134899198401513, 42.964578044650438 ], [ -122.132199720709337, 42.966338011333008 ], [ -122.129278199599, 42.967895109696897 ], [ -122.126162785513671, 42.969234328451805 ], [ -122.122883504318708, 42.970342755979516 ], [ -122.119471967263067, 42.971209705227452 ], [ -122.115961065392398, 42.971826817104507 ], [ -122.112384651401669, 42.972188141365194 ], [ -122.108777212044643, 42.972290194188403 ], [ -122.105173534315568, 42.972131991885504 ], [ -122.101608368683571, 42.971715060407199 ], [ -122.098116092690205, 42.9710434205562 ], [ -122.094730378217079, 42.970123549051706 ], [ -122.091483865692098, 42.968964315828863 ], [ -122.08840784843008, 42.96757689818984 ], [ -122.085531970198673, 42.965974672649402 ], [ -122.08288393896288, 42.964173085536913 ], [ -122.080489259594671, 42.962189503622497 ], [ -122.07837098813873, 42.960043046230368 ], [ -122.076549510005108, 42.957754400480219 ], [ -122.075042344215248, 42.955345621460488 ], [ -122.07386397556489, 42.95283991928094 ], [ -122.073025716285429, 42.950261435076158 ], [ -122.072535598491754, 42.947635008135464 ], [ -122.072398298398227, 42.944985936416117 ] ] ] } },
{ "type": "Feature", "properties": { "site_id": null, "Site Name abbrev": "Cuprite", "Site Name": "Cuprite", "Location Name": "Nevada", "Country": "USA", "Program Use": "CSDA", "Longitude": -117.234243, "Latitude": 37.524932, "Remote Sensing Domain": "Optical Hyper", "Priority Level": "high", "Evaluation Category": "Radiometric", "Source": "NASA", "Surface Domain": "Land", "Assessment type(s)": "Radiometric (spectral)", "Resolution Category": null, "aoi_shape": "circle", "aoi_size_km": null, "max_view_angle": null, "min_num_acqs": null, "ideal_num_acqs": null, "max_cloud_pct_aoi": null, "max_cloud_pct_scene": null, "contact": "paul.m.montesano@nasa.gov", "reference": null, "notes": null, "area_km2": 28.228936414912646, "feature_type": "site", "parent_site": null, " Location": null, "cr:id": null, "cr:lat": null, "cr:lon": null, "cr:height_above_ellipsoid_m": null, "cr:orientation_deg": null, "cr:elevation_angle_d": null, "cr:size_m": null }, "geometry": { "type": "Polygon", "coordinates": [ [ [ -117.20029147633619, 37.52499445757401 ], [ -117.200447871187592, 37.522343725611421 ], [ -117.200929698575067, 37.519717964547063 ], [ -117.201732285069411, 37.517142458100139 ], [ -117.20284787070814, 37.514642003537823 ], [ -117.204265684902737, 37.512240673105779 ], [ -117.205972051196085, 37.509961582526614 ], [ -117.207950519821992, 37.507826668782855 ], [ -117.210182026757565, 37.505856479309294 ], [ -117.212645077712821, 37.504069974607248 ], [ -117.215315955270583, 37.50248434616266 ], [ -117.218168947176963, 37.501114851401674 ], [ -117.221176593588581, 37.499974667253248 ], [ -117.224309950909486, 37.499074763710205 ], [ -117.227538869701448, 37.498423798588348 ], [ -117.230832284022284, 37.498028034482111 ], [ -117.234158509445237, 37.497891278703442 ], [ -117.237485546933485, 37.498014846772691 ], [ -117.240781389692017, 37.498397549807486 ], [ -117.244014330091474, 37.499035705928399 ], [ -117.24715326375933, 37.499923175573493 ], [ -117.250167987957724, 37.501051420387114 ], [ -117.253029491419667, 37.502409585124745 ], [ -117.25571023289217, 37.503984601797761 ], [ -117.258184405735776, 37.505761315069854 ], [ -117.260428186057311, 37.507722627715488 ], [ -117.262419962001417, 37.509849664757859 ], [ -117.264140541998472, 37.512121954725828 ], [ -117.265573339959019, 37.514517626304006 ], [ -117.266704535617478, 37.517013618501373 ], [ -117.267523208457604, 37.519585902332139 ], [ -117.268021443898135, 37.522209711889928 ], [ -117.268194410677609, 37.52485978260259 ], [ -117.268040408648247, 37.527510594383351 ], [ -117.267560886470051, 37.530136617342649 ], [ -117.266760428984426, 37.532712557696833 ], [ -117.265646714337308, 37.535213601503969 ], [ -117.264230441216085, 37.537615653874006 ], [ -117.262525226855246, 37.539895571340708 ], [ -117.260547476752762, 37.542031385144782 ], [ -117.258316227319099, 37.544002513262605 ], [ -117.255852962948467, 37.545789959121315 ], [ -117.253181409259398, 37.547376495066814 ], [ -117.250327304489005, 37.548746828798208 ], [ -117.247318151247455, 37.549887751145349 ], [ -117.244182951037232, 37.55078826374686 ], [ -117.240951924117795, 37.551439685381091 ], [ -117.237656217445547, 37.551835735910082 ], [ -117.234327603541104, 37.551972597014831 ], [ -117.230998173229324, 37.551848949127326 ], [ -117.227700025260276, 37.551465984197328 ], [ -117.224464955851218, 37.550827394168799 ], [ -117.221324151191411, 37.549939335278467 ], [ -117.218307885919984, 37.548810368526404 ], [ -117.215445230526342, 37.547451376900824 ], [ -117.212763770531609, 37.545875460167274 ], [ -117.210289340187586, 37.544097808250818 ], [ -117.208045773282905, 37.542135554448599 ], [ -117.206054673471371, 37.540007609905551 ], [ -117.204335206339181, 37.537734480967544 ], [ -117.202903915208893, 37.535338071191084 ], [ -117.201774562439468, 37.532841469935711 ], [ -117.200957997726007, 37.530268729592933 ], [ -117.200462054635651, 37.527644633612645 ], [ -117.20029147633619, 37.52499445757401 ] ] ] } },
{ "type": "Feature", "properties": { "site_id": null, "Site Name abbrev": "Dublin", "Site Name": "Dublin", "Location Name": "Dublin", "Country": "Ireland", "Program Use": "CSDA", "Longitude": -6.258146, "Latitude": 53.42821, "Remote Sensing Domain": "Optical Multi/Hyper", "Priority Level": "high", "Evaluation Category": "Geometric", "Source": "NASA", "Surface Domain": "Land", "Assessment type(s)": "Geometric Calibration Quality (priority pointing site)", "Resolution Category": "< 30 m", "aoi_shape": "box", "aoi_size_km": 3.0, "max_view_angle": 30.0, "min_num_acqs": 5.0, "ideal_num_acqs": 5.0, "max_cloud_pct_aoi": 15.0, "max_cloud_pct_scene": null, "contact": "paul.m.montesano@nasa.gov", "reference": null, "notes": null, "area_km2": 8.9999999999986038, "feature_type": "site", "parent_site": null, " Location": null, "cr:id": null, "cr:lat": null, "cr:lon": null, "cr:height_above_ellipsoid_m": null, "cr:orientation_deg": null, "cr:elevation_angle_d": null, "cr:size_m": null }, "geometry": { "type": "Polygon", "coordinates": [ [ [ -6.236471035936756, 53.414222392079743 ], [ -6.234722235839402, 53.441157328127446 ], [ -6.279835185879738, 53.442193820002821 ], [ -6.281555542344857, 53.415257872433578 ], [ -6.236471035936756, 53.414222392079743 ] ] ] } },
{ "type": "Feature", "properties": { "site_id": null, "Site Name abbrev": "Gobabeb", "Site Name": "Gobabeb", "Location Name": "Gobabeb", "Country": "Namibia", "Program Use": "CSDA", "Longitude": 15.11956, "Latitude": -23.6002, "Remote Sensing Domain": "Optical Multi/Hyper", "Priority Level": "high", "Evaluation Category": "Radiometric", "Source": "RadCalNet", "Surface Domain": "Land", "Assessment type(s)": "Radiometric Calibration Quality (Absolute)", "Resolution Category": null, "aoi_shape": "circle", "aoi_size_km": null, "max_view_angle": null, "min_num_acqs": null, "ideal_num_acqs": null, "max_cloud_pct_aoi": null, "max_cloud_pct_scene": null, "contact": "brian.n.wenny@nasa.gov", "reference": null, "notes": null, "area_km2": 28.228936414912543, "feature_type": "site", "parent_site": null, " Location": null, "cr:id": null, "cr:lat": null, "cr:lon": null, "cr:height_above_ellipsoid_m": null, "cr:orientation_deg": null, "cr:elevation_angle_d": null, "cr:size_m": null }, "geometry": { "type": "Polygon", "coordinates": [ [ [ 15.148965101082112, -23.600174577664383 ], [ 15.148826505007436, -23.602830798742978 ], [ 15.148406040146723, -23.605461708908482 ], [ 15.147707739441827, -23.608041968912019 ], [ 15.146738312798069, -23.610546725885037 ], [ 15.145507083046004, -23.612951852821812 ], [ 15.144025896669106, -23.615234181120758 ], [ 15.142309010137335, -23.617371723937776 ], [ 15.140372952924908, -23.619343888191967 ], [ 15.138236368519218, -23.621131673171977 ], [ 15.135919834944417, -23.622717853819424 ], [ 15.133445666525267, -23.6240871469127 ], [ 15.130837698802509, -23.625226358539411 ], [ 15.128121058678317, -23.626124511425946 ], [ 15.125321922017095, -23.626772950887801 ], [ 15.122467261051977, -23.627165428371121 ], [ 15.119584584049228, -23.627298161773648 ], [ 15.116701669759932, -23.627169871958305 ], [ 15.113846299240709, -23.626781795104495 ], [ 15.111045987651442, -23.626137670776814 ], [ 15.108327718638286, -23.625243705827128 ], [ 15.105717683884336, -23.624108514480859 ], [ 15.103241030358763, -23.622743035189959 ], [ 15.10092161771817, -23.621160425060417 ], [ 15.098781788212728, -23.619375932880192 ], [ 15.096842151324999, -23.617406751980187 ], [ 15.095121385222892, -23.615271854356596 ], [ 15.0936360569413, -23.612991807663445 ], [ 15.092400463021663, -23.610588576849224 ], [ 15.091426492136828, -23.608085312359069 ], [ 15.09072351101214, -23.605506126952303 ], [ 15.090298274725379, -23.602875863293374 ], [ 15.090154862229744, -23.600219854562091 ], [ 15.090294637698578, -23.597563680393552 ], [ 15.09071623803993, -23.594932920501741 ], [ 15.091415586676083, -23.592352908360599 ], [ 15.092385933430327, -23.589848487313485 ], [ 15.093617920112777, -23.587443771456673 ], [ 15.095099671151546, -23.585161913594188 ], [ 15.096816908377019, -23.583024882491536 ], [ 15.098753088837995, -23.581053251564732 ], [ 15.100889564310672, -23.579266001029648 ], [ 15.103205760957099, -23.577680335406257 ], [ 15.105679377400474, -23.576311518124072 ], [ 15.108286599312143, -23.575172724810304 ], [ 15.111002328451029, -23.574274916663057 ], [ 15.113800423961399, -23.573626735118662 ], [ 15.116653953620963, -23.573234418819336 ], [ 15.119535452638932, -23.573101743673142 ], [ 15.122417187533545, -23.573229986578397 ], [ 15.125271422571682, -23.573617913158404 ], [ 15.128070686229387, -23.574261789623527 ], [ 15.130788035131955, -23.575155418647125 ], [ 15.133397312955617, -23.576290198913242 ], [ 15.135873401819611, -23.577655207767517 ], [ 15.138192463766943, -23.579237306182577 ], [ 15.140332170024363, -23.581021265035375 ], [ 15.142271915845628, -23.582989911490483 ], [ 15.14399301887655, -23.585124294090129 ], [ 15.145478899134224, -23.587403864972362 ], [ 15.14671523886506, -23.589806677473824 ], [ 15.147690120735099, -23.592309597224872 ], [ 15.148394143010346, -23.59488852471436 ], [ 15.148820510602215, -23.597518627189388 ], [ 15.148965101082112, -23.600174577664383 ] ] ] } },
{ "type": "Feature", "properties": { "site_id": null, "Site Name abbrev": "Hohhot", "Site Name": "Hohhot", "Location Name": "Inner Mongolia", "Country": "China", "Program Use": "CSDA", "Longitude": 111.822379, "Latitude": 40.851215, "Remote Sensing Domain": "Optical Multi/Hyper", "Priority Level": "high", "Evaluation Category": "Geometric", "Source": "NASA", "Surface Domain": "Land", "Assessment type(s)": "Geometric Calibration Quality (pointing site)", "Resolution Category": "< 30 m", "aoi_shape": "box", "aoi_size_km": 3.0, "max_view_angle": 30.0, "min_num_acqs": 5.0, "ideal_num_acqs": 5.0, "max_cloud_pct_aoi": 15.0, "max_cloud_pct_scene": null, "contact": "paul.m.montesano@nasa.gov", "reference": null, "notes": null, "area_km2": 9.0, "feature_type": "site", "parent_site": null, " Location": null, "cr:id": null, "cr:lat": null, "cr:lon": null, "cr:height_above_ellipsoid_m": null, "cr:orientation_deg": null, "cr:elevation_angle_d": null, "cr:size_m": null }, "geometry": { "type": "Polygon", "coordinates": [ [ [ 111.840002111031822, 40.837575500465441 ], [ 111.840343472135331, 40.864598006148114 ], [ 111.80474866131695, 40.864851843030316 ], [ 111.804421755515818, 40.837829097083024 ], [ 111.840002111031822, 40.837575500465441 ] ] ] } },
{ "type": "Feature", "properties": { "site_id": null, "Site Name abbrev": "King Fahd Causeway", "Site Name": "King Fahd Causeway", "Location Name": "Bahrain", "Country": "Saudia Arabia", "Program Use": "CSDA", "Longitude": 50.3512, "Latitude": 26.1818, "Remote Sensing Domain": "Optical Multi/Hyper", "Priority Level": "high", "Evaluation Category": "Geometric", "Source": "All", "Surface Domain": "Land", "Assessment type(s)": "Geometric  Calibration Quality (LSF/MTF N/S)", "Resolution Category": "> 30 m", "aoi_shape": "box", "aoi_size_km": 3.0, "max_view_angle": 10.0, "min_num_acqs": null, "ideal_num_acqs": null, "max_cloud_pct_aoi": 0.0, "max_cloud_pct_scene": null, "contact": "paul.m.montesano@nasa.gov", "reference": null, "notes": null, "area_km2": 8.9999999999998241, "feature_type": "site", "parent_site": null, " Location": null, "cr:id": null, "cr:lat": null, "cr:lon": null, "cr:height_above_ellipsoid_m": null, "cr:orientation_deg": null, "cr:elevation_angle_d": null, "cr:size_m": null }, "geometry": { "type": "Polygon", "coordinates": [ [ [ 50.366283838779637, 26.168323256936514 ], [ 50.366137308916642, 26.195410492070266 ], [ 50.336112691436092, 26.19527507153585 ], [ 50.336266160867631, 26.168187997317037 ], [ 50.366283838779637, 26.168323256936514 ] ] ] } },
{ "type": "Feature", "properties": { "site_id": null, "Site Name abbrev": "La Crau", "Site Name": "La Crau", "Location Name": "La Crau", "Country": "France", "Program Use": "CSDA", "Longitude": 4.864167, "Latitude": 43.558889, "Remote Sensing Domain": "Optical Multi/Hyper", "Priority Level": "high", "Evaluation Category": "Radiometric & Geometric", "Source": "RadCalNet", "Surface Domain": "Land", "Assessment type(s)": "Radiometric (Absolute, Relative, Temporal, B2B)", "Resolution Category": null, "aoi_shape": "circle", "aoi_size_km": null, "max_view_angle": null, "min_num_acqs": null, "ideal_num_acqs": null, "max_cloud_pct_aoi": null, "max_cloud_pct_scene": null, "contact": "brian.n.wenny@nasa.gov", "reference": null, "notes": null, "area_km2": 28.228936414916078, "feature_type": "site", "parent_site": null, " Location": null, "cr:id": null, "cr:lat": null, "cr:lon": null, "cr:height_above_ellipsoid_m": null, "cr:orientation_deg": null, "cr:elevation_angle_d": null, "cr:size_m": null }, "geometry": { "type": "Polygon", "coordinates": [ [ [ 4.901291198581585, 43.558277447244997 ], [ 4.90102921481548, 43.555634180018394 ], [ 4.900412290887631, 43.553022311590532 ], [ 4.899446411851202, 43.550466989242935 ], [ 4.898140919270441, 43.547992812769628 ], [ 4.896508419736704, 43.545623597928312 ], [ 4.894564662157778, 43.543382147540022 ], [ 4.892328385052035, 43.541290032424413 ], [ 4.889821135357454, 43.539367384259137 ], [ 4.887067060528173, 43.537632702335635 ], [ 4.884092675935615, 43.536102676047776 ], [ 4.880926609815734, 43.534792024798371 ], [ 4.877599328206816, 43.533713356840657 ], [ 4.874142842501959, 43.532877048391931 ], [ 4.870590402395969, 43.5322911441624 ], [ 4.866976177136366, 43.531961280240111 ], [ 4.863334928092271, 43.531890630060893 ], [ 4.859701675731779, 43.532079873974013 ], [ 4.856111364148239, 43.532527192691795 ], [ 4.852598526297627, 43.533228284686473 ], [ 4.849196953103397, 43.534176407371149 ], [ 4.845939369551402, 43.535362441677833 ], [ 4.842857120836074, 43.536774979424194 ], [ 4.839979871530455, 43.538400432644963 ], [ 4.837335320637255, 43.540223163855529 ], [ 4.834948935236782, 43.542225636016134 ], [ 4.832843705281182, 43.544388580776342 ], [ 4.831039921894042, 43.546691183404668 ], [ 4.8295549813215, 43.549111282646244 ], [ 4.82840321644693, 43.551625583607269 ], [ 4.827595757527997, 43.554209881636531 ], [ 4.827140423544102, 43.556839295065707 ], [ 4.827041645256597, 43.559488504581104 ], [ 4.827300420785411, 43.562131996931441 ], [ 4.827914304197205, 43.564744310629571 ], [ 4.828877427284028, 43.567300281282513 ], [ 4.830180554391171, 43.569775284182235 ], [ 4.831811169831091, 43.572145471812028 ], [ 4.833753597100712, 43.57438800396713 ], [ 4.835989148804793, 43.576481268256231 ], [ 4.838496305882264, 43.578405088839602 ], [ 4.841250924438346, 43.580140921370436 ], [ 4.844226468206641, 43.581672032237677 ], [ 4.847394264404823, 43.5829836603587 ], [ 4.850723780508735, 43.584063159939589 ], [ 4.8541829192549, 43.584900122804207 ], [ 4.857738328993578, 43.585486479093511 ], [ 4.861355726355834, 43.585816575346968 ], [ 4.865000228070304, 43.585887229200381 ], [ 4.868636688670446, 43.585697760163335 ], [ 4.872230040771928, 43.585249996174852 ], [ 4.875745634573271, 43.584548255874246 ], [ 4.879149573241309, 43.58359930676248 ], [ 4.882409040886353, 43.582412299666707 ], [ 4.885492619909372, 43.580998680153044 ], [ 4.888370594614438, 43.579372077758507 ], [ 4.891015238122274, 43.577548174129781 ], [ 4.893401079793583, 43.575544551362057 ], [ 4.895505150571561, 43.57338052202288 ], [ 4.897307203879273, 43.571076942523547 ], [ 4.89878990995663, 43.568656011659449 ], [ 4.899939021790661, 43.566141056283136 ], [ 4.900743511078522, 43.563556306194613 ], [ 4.901195672961976, 43.560926660434575 ], [ 4.901291198581585, 43.558277447244997 ] ] ] } },
{ "type": "Feature", "properties": { "site_id": null, "Site Name abbrev": "Lake Pontchartrain Causeway", "Site Name": "Lake Pontchartrain Causeway", "Location Name": "Louisiana", "Country": "USA", "Program Use": "CSDA", "Longitude": -90.123445, "Latitude": 30.195496, "Remote Sensing Domain": "Optical Multi/Hyper", "Priority Level": "high", "Evaluation Category": "Geometric", "Source": "NASA", "Surface Domain": "Land", "Assessment type(s)": "Geometric  Calibration Quality (LSF/MTF E/W)", "Resolution Category": "> 30 m", "aoi_shape": "box", "aoi_size_km": 3.0, "max_view_angle": 10.0, "min_num_acqs": null, "ideal_num_acqs": null, "max_cloud_pct_aoi": 0.0, "max_cloud_pct_scene": null, "contact": "paul.m.montesano@nasa.gov", "reference": null, "notes": null, "area_km2": 9.0000000000013962, "feature_type": "site", "parent_site": null, " Location": null, "cr:id": null, "cr:lat": null, "cr:lon": null, "cr:height_above_ellipsoid_m": null, "cr:orientation_deg": null, "cr:elevation_angle_d": null, "cr:size_m": null }, "geometry": { "type": "Polygon", "coordinates": [ [ [ -90.108277046261307, 30.181634187249685 ], [ -90.107486156920331, 30.208672602674973 ], [ -90.13861719552726, 30.20935630569215 ], [ -90.139399601291217, 30.182317152205744 ], [ -90.108277046261307, 30.181634187249685 ] ] ] } },
{ "type": "Feature", "properties": { "site_id": null, "Site Name abbrev": "London", "Site Name": "London", "Location Name": "London", "Country": "UK", "Program Use": "CSDA", "Longitude": -0.459105, "Latitude": 51.47198, "Remote Sensing Domain": "Optical Multi/Hyper", "Priority Level": "high", "Evaluation Category": "Geometric", "Source": "NASA", "Surface Domain": "Land", "Assessment type(s)": "Geometric Calibration Quality (pointing site)", "Resolution Category": "< 30 m", "aoi_shape": "box", "aoi_size_km": 3.0, "max_view_angle": 30.0, "min_num_acqs": 5.0, "ideal_num_acqs": 5.0, "max_cloud_pct_aoi": 15.0, "max_cloud_pct_scene": null, "contact": "paul.m.montesano@nasa.gov", "reference": null, "notes": null, "area_km2": 8.9999999999958096, "feature_type": "site", "parent_site": null, " Location": null, "cr:id": null, "cr:lat": null, "cr:lon": null, "cr:height_above_ellipsoid_m": null, "cr:orientation_deg": null, "cr:elevation_angle_d": null, "cr:size_m": null }, "geometry": { "type": "Polygon", "coordinates": [ [ [ -0.43828497365517, 51.458036068298867 ], [ -0.436774282049367, 51.484984382808449 ], [ -0.479937712909618, 51.485920375004575 ], [ -0.481423031386401, 51.458971163258951 ], [ -0.43828497365517, 51.458036068298867 ] ] ] } },
{ "type": "Feature", "properties": { "site_id": null, "Site Name abbrev": "Melbourne", "Site Name": "Melbourne", "Location Name": "Victoria", "Country": "Australia", "Program Use": "CSDA", "Longitude": 144.985194, "Latitude": -37.841485, "Remote Sensing Domain": "Optical Multi/Hyper", "Priority Level": "high", "Evaluation Category": "Geometric", "Source": "NASA", "Surface Domain": "Land", "Assessment type(s)": "Geometric Calibration Quality (pointing site)", "Resolution Category": "< 30 m", "aoi_shape": "box", "aoi_size_km": 3.0, "max_view_angle": 30.0, "min_num_acqs": 5.0, "ideal_num_acqs": 5.0, "max_cloud_pct_aoi": 15.0, "max_cloud_pct_scene": null, "contact": "paul.m.montesano@nasa.gov", "reference": null, "notes": null, "area_km2": 9.0000000000024443, "feature_type": "site", "parent_site": null, " Location": null, "cr:id": null, "cr:lat": null, "cr:lon": null, "cr:height_above_ellipsoid_m": null, "cr:orientation_deg": null, "cr:elevation_angle_d": null, "cr:size_m": null }, "geometry": { "type": "Polygon", "coordinates": [ [ [ 145.001867004622454, -37.855286828140763 ], [ 145.002596205617323, -37.828263876876946 ], [ 144.96852720389262, -37.827680956891093 ], [ 144.967785585867802, -37.85470334398277 ], [ 145.001867004622454, -37.855286828140763 ] ] ] } },
{ "type": "Feature", "properties": { "site_id": null, "Site Name abbrev": "Navarre Causeway", "Site Name": "Navarre Causeway", "Location Name": "Navarre Causeway, FL", "Country": "USA", "Program Use": "CSDA", "Longitude": -86.8633, "Latitude": 30.3965, "Remote Sensing Domain": "Optical Multi/Hyper", "Priority Level": "high", "Evaluation Category": "Geometric", "Source": "NASA", "Surface Domain": "Land", "Assessment type(s)": "Geometric Calibration Quality (LSF E/W)", "Resolution Category": "10 m - 30 m", "aoi_shape": "box", "aoi_size_km": 1.0, "max_view_angle": 5.0, "min_num_acqs": null, "ideal_num_acqs": null, "max_cloud_pct_aoi": 0.0, "max_cloud_pct_scene": null, "contact": "paul.m.montesano@nasa.gov", "reference": null, "notes": null, "area_km2": 0.99999999999898137, "feature_type": "site", "parent_site": null, " Location": null, "cr:id": null, "cr:lat": null, "cr:lon": null, "cr:height_above_ellipsoid_m": null, "cr:orientation_deg": null, "cr:elevation_angle_d": null, "cr:size_m": null }, "geometry": { "type": "Polygon", "coordinates": [ [ [ -86.858101564162027, 30.391982429331485 ], [ -86.858088518768412, 30.401006466288713 ], [ -86.868498914328924, 30.401017362108394 ], [ -86.868511002740632, 30.391993321239887 ], [ -86.858101564162027, 30.391982429331485 ] ] ] } },
{ "type": "Feature", "properties": { "site_id": null, "Site Name abbrev": "Old Bahia Bridge", "Site Name": "Old Bahia Bridge", "Location Name": "Old Bahia Bridge, FL", "Country": "USA", "Program Use": "CSDA", "Longitude": -81.2896, "Latitude": 24.6552, "Remote Sensing Domain": "Optical Multi/Hyper", "Priority Level": "high", "Evaluation Category": "Geometric", "Source": "NASA", "Surface Domain": "Land", "Assessment type(s)": "Geometric Calibration Quality (LSF N/S)", "Resolution Category": "10 m - 30 m", "aoi_shape": "box", "aoi_size_km": 1.0, "max_view_angle": 5.0, "min_num_acqs": null, "ideal_num_acqs": null, "max_cloud_pct_aoi": 0.0, "max_cloud_pct_scene": null, "contact": "paul.m.montesano@nasa.gov", "reference": null, "notes": null, "area_km2": 1.0000000000006695, "feature_type": "site", "parent_site": null, " Location": null, "cr:id": null, "cr:lat": null, "cr:lon": null, "cr:height_above_ellipsoid_m": null, "cr:orientation_deg": null, "cr:elevation_angle_d": null, "cr:size_m": null }, "geometry": { "type": "Polygon", "coordinates": [ [ [ -81.284648598345825, 24.650693740492642 ], [ -81.284669079957283, 24.659725137258015 ], [ -81.294551757165436, 24.65970609039627 ], [ -81.294530564531414, 24.650674701517772 ], [ -81.284648598345825, 24.650693740492642 ] ] ] } },
{ "type": "Feature", "properties": { "site_id": null, "Site Name abbrev": "PICS Libya-4", "Site Name": "PICS Libya-4", "Location Name": "PICS Libya-4", "Country": "Libya", "Program Use": "CSDA", "Longitude": 23.39, "Latitude": 28.55, "Remote Sensing Domain": "Optical Multi/Hyper", "Priority Level": "high", "Evaluation Category": "Radiometric", "Source": "USGS", "Surface Domain": "Land", "Assessment type(s)": "Radiometric Calibration Quality (Temporal)", "Resolution Category": null, "aoi_shape": "custom", "aoi_size_km": null, "max_view_angle": null, "min_num_acqs": null, "ideal_num_acqs": null, "max_cloud_pct_aoi": null, "max_cloud_pct_scene": null, "contact": "alexei.i.lyapustin@nasa.gov", "reference": null, "notes": null, "area_km2": 2.5736869883086078, "feature_type": "site", "parent_site": null, " Location": null, "cr:id": null, "cr:lat": null, "cr:lon": null, "cr:height_above_ellipsoid_m": null, "cr:orientation_deg": null, "cr:elevation_angle_d": null, "cr:size_m": null }, "geometry": { "type": "Polygon", "coordinates": [ [ [ 23.39665038, 28.55833333 ], [ 23.39109758, 28.53333333 ], [ 23.40058302, 28.53333333 ], [ 23.40613807, 28.55833333 ], [ 23.39665038, 28.55833333 ] ] ] } },
{ "type": "Feature", "properties": { "site_id": null, "Site Name abbrev": "Railroad Valley", "Site Name": "Railroad Valley", "Location Name": "Nevada", "Country": "USA", "Program Use": "CSDA", "Longitude": -115.69, "Latitude": 38.497, "Remote Sensing Domain": "Optical Multi/Hyper", "Priority Level": "high", "Evaluation Category": "Radiometric", "Source": "RadCalNet", "Surface Domain": "Land", "Assessment type(s)": "Radiometric Calibration Quality (Absolute)", "Resolution Category": null, "aoi_shape": "circle", "aoi_size_km": 15.0, "max_view_angle": null, "min_num_acqs": null, "ideal_num_acqs": null, "max_cloud_pct_aoi": null, "max_cloud_pct_scene": null, "contact": "brian.n.wenny@nasa.gov; shashank.bhushan@nasa.gov", "reference": null, "notes": "15km radius to help characterize fine-scale sensor geometry issues (e.g., distortion, jitter)", "area_km2": 705.72341037284264, "feature_type": "site", "parent_site": null, " Location": null, "cr:id": null, "cr:lat": null, "cr:lon": null, "cr:height_above_ellipsoid_m": null, "cr:orientation_deg": null, "cr:elevation_angle_d": null, "cr:size_m": null }, "geometry": { "type": "Polygon", "coordinates": [ [ [ -115.518038224549514, 38.494950043161353 ], [ -115.519137393548746, 38.481714781375089 ], [ -115.521880903270883, 38.468627838502393 ], [ -115.526241482088139, 38.455815118877616 ], [ -115.532176363384494, 38.443399824782695 ], [ -115.539627726808291, 38.431501277403648 ], [ -115.548523280298085, 38.42023377718877 ], [ -115.558776976338365, 38.409705514212064 ], [ -115.570289854808891, 38.40001753860561 ], [ -115.582951003798982, 38.391262800502524 ], [ -115.596638628864739, 38.383525268237641 ], [ -115.61122122041364, 38.376879132794002 ], [ -115.626558808205374, 38.371388105664259 ], [ -115.642504291357568, 38.367104816427407 ], [ -115.658904831738994, 38.364070315427654 ], [ -115.675603298214398, 38.362313685991857 ], [ -115.692439748878272, 38.361851769641241 ], [ -115.709252938168646, 38.362689006748852 ], [ -115.725881835593697, 38.364817394072936 ], [ -115.742167142724838, 38.368216559565283 ], [ -115.757952795114775, 38.37285395381862 ], [ -115.773087435885387, 38.378685156484934 ], [ -115.78742584790109, 38.38565429497546 ], [ -115.800830331698265, 38.393694571746835 ], [ -115.813172016686082, 38.402728895496942 ], [ -115.824332093566724, 38.412670610643048 ], [ -115.834202956452657, 38.423424318541677 ], [ -115.842689243781521, 38.434886783042813 ], [ -115.849708767854452, 38.44694791215597 ], [ -115.855193323648052, 38.459491806852945 ], [ -115.859089368478791, 38.472397867345855 ], [ -115.861358565129478, 38.48554194657067 ], [ -115.861978182178049, 38.498797540081007 ], [ -115.860941346499317, 38.512037001122692 ], [ -115.858257144229583, 38.525132769324728 ], [ -115.85395056788974, 38.537958601210875 ], [ -115.848062308838905, 38.550390790617286 ], [ -115.84064839576854, 38.562309367097384 ], [ -115.831779681528076, 38.573599260511983 ], [ -115.821541182179757, 38.584151420242115 ], [ -115.810031273792958, 38.593863877824901 ], [ -115.797360754082277, 38.602642742300432 ], [ -115.783651777547618, 38.610403118166026 ], [ -115.769036674261187, 38.617069936561279 ], [ -115.753656663843188, 38.62257869114444 ], [ -115.737660477447065, 38.626876071063599 ], [ -115.721202901717348, 38.629920484461302 ], [ -115.704443259661574, 38.631682467069673 ], [ -115.687543844179089, 38.632144971639981 ], [ -115.670668320591972, 38.631303535192487 ], [ -115.653980114919619, 38.629166322352006 ], [ -115.63764080481856, 38.62575404433705 ], [ -115.621808530067995, 38.621099754476653 ], [ -115.606636439223706, 38.615248522424338 ], [ -115.592271188590772, 38.608256990503158 ], [ -115.578851508989729, 38.600192816836625 ], [ -115.566506854927184, 38.591134011079156 ], [ -115.555356149743389, 38.581168169645096 ], [ -115.545506639121271, 38.57039161833282 ], [ -115.537052864022399, 38.55890847114128 ], [ -115.530075762690885, 38.546829614870276 ], [ -115.52464190986143, 38.534271629775951 ], [ -115.52080289974694, 38.521355657116018 ], [ -115.518594877788487, 38.508206224860373 ], [ -115.518038224549514, 38.494950043161353 ] ] ] } },
{ "type": "Feature", "properties": { "site_id": null, "Site Name abbrev": "Rio Gallegos", "Site Name": "Rio Gallegos", "Location Name": "Argentina", "Country": "Argentina", "Program Use": "CSDA", "Longitude": -69.242713, "Latitude": -51.625811, "Remote Sensing Domain": "Optical Multi/Hyper", "Priority Level": "high", "Evaluation Category": "Geometric", "Source": "NASA", "Surface Domain": "Land", "Assessment type(s)": "Geometric Calibration Quality (priority pointing site)", "Resolution Category": "< 30 m", "aoi_shape": "box", "aoi_size_km": 3.0, "max_view_angle": 30.0, "min_num_acqs": 5.0, "ideal_num_acqs": 5.0, "max_cloud_pct_aoi": 15.0, "max_cloud_pct_scene": null, "contact": "paul.m.montesano@nasa.gov", "reference": null, "notes": null, "area_km2": 9.0000000000010463, "feature_type": "site", "parent_site": null, " Location": null, "cr:id": null, "cr:lat": null, "cr:lon": null, "cr:height_above_ellipsoid_m": null, "cr:orientation_deg": null, "cr:elevation_angle_d": null, "cr:size_m": null }, "geometry": { "type": "Polygon", "coordinates": [ [ [ -69.221109151095746, -51.639340976773262 ], [ -69.220978071022287, -51.612366576025451 ], [ -69.264303999172668, -51.612277036121412 ], [ -69.264460778709235, -51.639251350763942 ], [ -69.221109151095746, -51.639340976773262 ] ] ] } },
{ "type": "Feature", "properties": { "site_id": null, "Site Name abbrev": "Sapporo", "Site Name": "Sapporo", "Location Name": "Hokkaido", "Country": "Japan", "Program Use": "CSDA", "Longitude": 141.310137, "Latitude": 43.088274, "Remote Sensing Domain": "Optical Multi/Hyper", "Priority Level": "high", "Evaluation Category": "Geometric", "Source": "NASA", "Surface Domain": "Land", "Assessment type(s)": "Geometric Calibration Quality (pointing site)", "Resolution Category": "< 30 m", "aoi_shape": "box", "aoi_size_km": 3.0, "max_view_angle": 30.0, "min_num_acqs": 5.0, "ideal_num_acqs": 5.0, "max_cloud_pct_aoi": 15.0, "max_cloud_pct_scene": null, "contact": "paul.m.montesano@nasa.gov", "reference": null, "notes": null, "area_km2": 9.0000000000015721, "feature_type": "site", "parent_site": null, " Location": null, "cr:id": null, "cr:lat": null, "cr:lon": null, "cr:height_above_ellipsoid_m": null, "cr:orientation_deg": null, "cr:elevation_angle_d": null, "cr:size_m": null }, "geometry": { "type": "Polygon", "coordinates": [ [ [ 141.32849396181922, 43.074715349531687 ], [ 141.328638352321747, 43.101729758407416 ], [ 141.291771939667228, 43.101829697413997 ], [ 141.291643746191795, 43.074815194762792 ], [ 141.32849396181922, 43.074715349531687 ] ] ] } },
{ "type": "Feature", "properties": { "site_id": null, "Site Name abbrev": "Suramadu Bridge", "Site Name": "Suramadu Bridge", "Location Name": "Java", "Country": "Indonesia", "Program Use": "CSDA", "Longitude": 112.77914, "Latitude": -7.20245, "Remote Sensing Domain": "Optical Hyper", "Priority Level": "high", "Evaluation Category": "Geometric", "Source": "NASA", "Surface Domain": "Land", "Assessment type(s)": "Geometric Calibration Quality  (LSF E/W)", "Resolution Category": "> 30 m", "aoi_shape": "box", "aoi_size_km": 2.0, "max_view_angle": 10.0, "min_num_acqs": null, "ideal_num_acqs": null, "max_cloud_pct_aoi": 0.0, "max_cloud_pct_scene": null, "contact": "paul.m.montesano@nasa.gov", "reference": null, "notes": null, "area_km2": 3.9999999999987192, "feature_type": "site", "parent_site": null, " Location": null, "cr:id": null, "cr:lat": null, "cr:lon": null, "cr:height_above_ellipsoid_m": null, "cr:orientation_deg": null, "cr:elevation_angle_d": null, "cr:size_m": null }, "geometry": { "type": "Polygon", "coordinates": [ [ [ 112.78822878812818, -7.211456148922266 ], [ 112.788157914616548, -7.193373245575544 ], [ 112.7700515702346, -7.193443579086432 ], [ 112.77012172702068, -7.2115266610442 ], [ 112.78822878812818, -7.211456148922266 ] ] ] } },
{ "type": "Feature", "properties": { "site_id": null, "Site Name abbrev": "Shadnagar", "Site Name": "Shadnagar", "Location Name": "ISRO MTF - NRSC", "Country": "India", "Program Use": "CSDA", "Longitude": 78.184, "Latitude": 17.034, "Remote Sensing Domain": "Optical Multi/Hyper", "Priority Level": "high", "Evaluation Category": "Geometric", "Source": "All", "Surface Domain": "Land", "Assessment type(s)": "Geometric Calibration Quality  (LSF/MTF)", "Resolution Category": "< 10 m", "aoi_shape": "box", "aoi_size_km": 0.09, "max_view_angle": 15.0, "min_num_acqs": null, "ideal_num_acqs": null, "max_cloud_pct_aoi": 0.0, "max_cloud_pct_scene": null, "contact": "paul.m.montesano@nasa.gov", "reference": null, "notes": null, "area_km2": 0.0080999999999973801, "feature_type": "site", "parent_site": null, " Location": null, "cr:id": null, "cr:lat": null, "cr:lon": null, "cr:height_above_ellipsoid_m": null, "cr:orientation_deg": null, "cr:elevation_angle_d": null, "cr:size_m": null }, "geometry": { "type": "Polygon", "coordinates": [ [ [ 78.184428407864957, 17.03359956931039 ], [ 78.18441623890557, 17.034412138352476 ], [ 78.183571590315637, 17.034400429500149 ], [ 78.183583762913827, 17.033587861049668 ], [ 78.184428407864957, 17.03359956931039 ] ] ] } },
{ "type": "Feature", "properties": { "site_id": null, "Site Name abbrev": "Singapore", "Site Name": "Singapore", "Location Name": "Singapore", "Country": "Singapore", "Program Use": "CSDA", "Longitude": 103.838974, "Latitude": 1.308939, "Remote Sensing Domain": "Optical Multi/Hyper", "Priority Level": "high", "Evaluation Category": "Geometric", "Source": "NASA", "Surface Domain": "Land", "Assessment type(s)": "Geometric Calibration Quality (priority pointing site)", "Resolution Category": "< 30 m", "aoi_shape": "box", "aoi_size_km": 3.0, "max_view_angle": 30.0, "min_num_acqs": 5.0, "ideal_num_acqs": 5.0, "max_cloud_pct_aoi": 15.0, "max_cloud_pct_scene": null, "contact": "paul.m.montesano@nasa.gov", "reference": null, "notes": null, "area_km2": 8.9965181789362134, "feature_type": "site", "parent_site": null, " Location": null, "cr:id": null, "cr:lat": null, "cr:lon": null, "cr:height_above_ellipsoid_m": null, "cr:orientation_deg": null, "cr:elevation_angle_d": null, "cr:size_m": null }, "geometry": { "type": "Polygon", "coordinates": [ [ [ 103.852452150589684, 1.295373491869782 ], [ 103.852452295444053, 1.322504433761107 ], [ 103.825495704555948, 1.322504433761107 ], [ 103.825495849410316, 1.295373491869782 ], [ 103.852452150589684, 1.295373491869782 ] ] ] } },
{ "type": "Feature", "properties": { "site_id": null, "Site Name abbrev": "Valencia", "Site Name": "Valencia", "Location Name": "ESP-VLC2, El Palmar", "Country": "Spain", "Program Use": "CSDA", "Longitude": -0.3263, "Latitude": 39.2979, "Remote Sensing Domain": "Optical Multi/Hyper", "Priority Level": "high", "Evaluation Category": "Radiometric", "Source": "NASA", "Surface Domain": "Land", "Assessment type(s)": "Radiometric Calibration Quality (Absolute)", "Resolution Category": null, "aoi_shape": "circle", "aoi_size_km": null, "max_view_angle": null, "min_num_acqs": null, "ideal_num_acqs": null, "max_cloud_pct_aoi": null, "max_cloud_pct_scene": null, "contact": "eric.f.vermote@nasa.gov", "reference": null, "notes": null, "area_km2": 28.228936414915868, "feature_type": "site", "parent_site": null, " Location": null, "cr:id": null, "cr:lat": null, "cr:lon": null, "cr:height_above_ellipsoid_m": null, "cr:orientation_deg": null, "cr:elevation_angle_d": null, "cr:size_m": null }, "geometry": { "type": "Polygon", "coordinates": [ [ [ -0.291546965885427, 39.297096148352857 ], [ -0.291816353302471, 39.29445334297543 ], [ -0.29241777993911, 39.291843775421178 ], [ -0.293345418909031, 39.289292570983214 ], [ -0.294590305265424, 39.28682429044224 ], [ -0.296140423537838, 39.284462693868548 ], [ -0.297980824464519, 39.282230512215889 ], [ -0.300093769757162, 39.280149228891069 ], [ -0.302458903473706, 39.278238873384026 ], [ -0.305053448328054, 39.276517828926082 ], [ -0.307852425036077, 39.275002656007047 ], [ -0.310828892586055, 39.273707933429748 ], [ -0.313954207131096, 39.272646118411814 ], [ -0.317198297031979, 39.271827427063073 ], [ -0.320529951432837, 39.271259736372173 ], [ -0.323917119630062, 39.270948508632337 ], [ -0.327327218397605, 39.270896739023243 ], [ -0.330727444360276, 39.271104926846583 ], [ -0.334085088461045, 39.271571070689276 ], [ -0.337367849549201, 39.272290687562112 ], [ -0.340544144123559, 39.273256855834632 ], [ -0.343583409298791, 39.274460281561907 ], [ -0.346456396123056, 39.275889387576989 ], [ -0.349135450461205, 39.277530424507205 ], [ -0.351594778769231, 39.279367602662809 ], [ -0.353810696221558, 39.281383243548568 ], [ -0.355761854812418, 39.283557949559572 ], [ -0.357429449234643, 39.285870790249106 ], [ -0.358797398542344, 39.288299503394654 ], [ -0.359852501826894, 39.290820708945731 ], [ -0.360584566376122, 39.293410133810134 ], [ -0.360986507043357, 39.296042845328216 ], [ -0.361054415823037, 39.29869349119793 ], [ -0.36078760091155, 39.30133654354762 ], [ -0.360188594822375, 39.303946544809044 ], [ -0.359263131421618, 39.306498353021958 ], [ -0.358020092050222, 39.308967384202923 ], [ -0.356471421200043, 39.311329849435047 ], [ -0.35463201250918, 39.313562984382514 ], [ -0.352519566134798, 39.315645269004001 ], [ -0.350154418845724, 39.317556635330256 ], [ -0.347559348449537, 39.319278661284763 ], [ -0.344759354426556, 39.320794748659345 ], [ -0.34178141688327, 39.322090283509162 ], [ -0.33865423615755, 39.323152777401347 ], [ -0.335407955604892, 39.323971988137288 ], [ -0.332073870266716, 39.324540018768573 ], [ -0.328684124266256, 39.324851393938232 ], [ -0.325271399893185, 39.324903112800911 ], [ -0.321868601423337, 39.324694678005116 ], [ -0.318508536773845, 39.324228100454896 ], [ -0.315223600115821, 39.323507879806677 ], [ -0.312045458556418, 39.32254096089364 ], [ -0.309004745959569, 39.321336666507477 ], [ -0.306130766900679, 39.319906607197204 ], [ -0.303451213645851, 39.318264568970143 ], [ -0.300991898912087, 39.316426379995313 ], [ -0.298776507003218, 39.314409757613198 ], [ -0.296826365728575, 39.312234137146966 ], [ -0.295160241300365, 39.30992048418539 ], [ -0.293794158173389, 39.30749109216611 ], [ -0.292741245539996, 39.304969367228274 ], [ -0.292011611926893, 39.302379602423848 ], [ -0.291612249061312, 39.299746743476156 ], [ -0.291546965885427, 39.297096148352857 ] ] ] } },
{ "type": "Feature", "properties": { "site_id": null, "Site Name abbrev": "Golmud", "Site Name": "Golmud", "Location Name": "Tibetan Plateau", "Country": "China", "Program Use": "CSDA", "Longitude": 94.3286, "Latitude": 36.3977, "Remote Sensing Domain": "Optical Multi/Hyper", "Priority Level": "high", "Evaluation Category": "Radiometric", "Source": "RadCalNet", "Surface Domain": "Land", "Assessment type(s)": "Radiometric Calibration Quality (Absolute)", "Resolution Category": null, "aoi_shape": "circle", "aoi_size_km": null, "max_view_angle": null, "min_num_acqs": null, "ideal_num_acqs": null, "max_cloud_pct_aoi": null, "max_cloud_pct_scene": null, "contact": "brian.n.wenny@nasa.gov", "reference": null, "notes": null, "area_km2": 28.228936414913786, "feature_type": "site", "parent_site": null, " Location": null, "cr:id": null, "cr:lat": null, "cr:lon": null, "cr:height_above_ellipsoid_m": null, "cr:orientation_deg": null, "cr:elevation_angle_d": null, "cr:size_m": null }, "geometry": { "type": "Polygon", "coordinates": [ [ [ 94.362045584736777, 36.397323206280163 ], [ 94.361838293976774, 36.394674818588008 ], [ 94.361310941652945, 36.392055606352329 ], [ 94.360468637203539, 36.38949078922537 ], [ 94.359319520448764, 36.38700506072604 ], [ 94.357874682127019, 36.384622350700397 ], [ 94.35614805616072, 36.382365595213663 ], [ 94.354156284724496, 36.38025651607613 ], [ 94.35191855744344, 36.37831541211046 ], [ 94.349456426290274, 36.376560964152915 ], [ 94.34679359797498, 36.375010055647685 ], [ 94.34395570582825, 36.373677610542785 ], [ 94.340970063368289, 36.372576450029996 ], [ 94.33786540190745, 36.371717169490616 ], [ 94.334671594700779, 36.371108036816075 ], [ 94.331419370260633, 36.370754913068907 ], [ 94.328140017559591, 36.370661196237208 ], [ 94.324865085917168, 36.370827788616879 ], [ 94.321626082414298, 36.371253088131297 ], [ 94.31845416970144, 36.371933003672197 ], [ 94.315379867063584, 36.372860994316945 ], [ 94.312432757575706, 36.374028132051663 ], [ 94.309641204127928, 36.375423187406497 ], [ 94.307032077019898, 36.377032737191278 ], [ 94.304630495718968, 36.378841293310096 ], [ 94.302459587248933, 36.380831451431227 ], [ 94.300540263524084, 36.382984058099808 ], [ 94.298891019770892, 36.385278394702688 ], [ 94.297527755985385, 36.387692376532804 ], [ 94.296463623161557, 36.390202765053992 ], [ 94.295708895796693, 36.392785391338101 ], [ 94.295270871933212, 36.395415388536527 ], [ 94.295153801738593, 36.398067431158893 ], [ 94.295358845354556, 36.400715978861662 ], [ 94.295884060468154, 36.403335522403843 ], [ 94.296724419772843, 36.405900829401254 ], [ 94.29787185819923, 36.408387187509618 ], [ 94.299315349506088, 36.410770642687325 ], [ 94.301041011536086, 36.413028230233436 ], [ 94.303032239158171, 36.415138196362086 ], [ 94.305269863645762, 36.417080208164052 ], [ 94.307732336976528, 36.418835549915428 ], [ 94.310395939290885, 36.420387303824036 ], [ 94.313235007513825, 36.421720513453465 ], [ 94.316222182931227, 36.422822328231675 ], [ 94.319328675320094, 36.423682127634279 ], [ 94.322524541063785, 36.424291623830186 ], [ 94.325778972541471, 36.424644941786958 ], [ 94.329060595965316, 36.42473867605306 ], [ 94.3323377747531, 36.424571923662675 ], [ 94.335578915467295, 36.424146292841499 ], [ 94.338752773325524, 36.423465887429749 ], [ 94.34182875429191, 36.422537267175571 ], [ 94.344777210794291, 36.421369384288376 ], [ 94.347569728177518, 36.419973496873858 ], [ 94.350179399098494, 36.418363060097761 ], [ 94.352581083191509, 36.416553596142613 ], [ 94.354751649482623, 36.414562544227749 ], [ 94.356670199207358, 36.412409092156047 ], [ 94.358318266883657, 36.410113991029007 ], [ 94.359679997711567, 36.407699354933897 ], [ 94.36074229960775, 36.405188447549889 ], [ 94.36149496843646, 36.402605457744748 ], [ 94.361930785263596, 36.399975266336909 ], [ 94.362045584736777, 36.397323206280163 ] ] ] } },
{ "type": "Feature", "properties": { "site_id": null, "Site Name abbrev": "WLEF", "Site Name": "WLEF", "Location Name": "WLEF tower", "Country": "USA", "Program Use": "CSDA", "Longitude": -90.2732, "Latitude": 45.9449, "Remote Sensing Domain": "Optical Multi/Hyper", "Priority Level": "high", "Evaluation Category": "Radiometric", "Source": "NASA", "Surface Domain": "Land", "Assessment type(s)": "Radiometric Calibration Quality (Absolute)", "Resolution Category": null, "aoi_shape": "circle", "aoi_size_km": null, "max_view_angle": null, "min_num_acqs": null, "ideal_num_acqs": 15.0, "max_cloud_pct_aoi": null, "max_cloud_pct_scene": null, "contact": "paul.m.montesano@nasa.gov", "reference": null, "notes": null, "area_km2": 28.228936414916358, "feature_type": "site", "parent_site": null, " Location": null, "cr:id": null, "cr:lat": null, "cr:lon": null, "cr:height_above_ellipsoid_m": null, "cr:orientation_deg": null, "cr:elevation_angle_d": null, "cr:size_m": null }, "geometry": { "type": "Polygon", "coordinates": [ [ [ -90.234539727545027, 45.943970296210594 ], [ -90.234857406502599, 45.941331300019179 ], [ -90.235544266098202, 45.938726729195821 ], [ -90.236593642569261, 45.936181659530682 ], [ -90.237995385865204, 45.933720590675293 ], [ -90.239735959084513, 45.931367210612144 ], [ -90.241798570273332, 45.929144168044189 ], [ -90.244163335261788, 45.927072854876528 ], [ -90.246807469926978, 45.925173200861664 ], [ -90.24970551000203, 45.923463482361079 ], [ -90.252829556300085, 45.921960147037616 ], [ -90.256149542991849, 45.920677656140519 ], [ -90.25963352636937, 45.919628345875573 ], [ -90.263247991344969, 45.918822309170956 ], [ -90.266958172777635, 45.91826729895584 ], [ -90.27072838858723, 45.917968653864733 ], [ -90.274522381513506, 45.917929247069203 ], [ -90.278303666300275, 45.918149458720244 ], [ -90.282035879037664, 45.918627172262546 ], [ -90.285683125375243, 45.919357794656882 ], [ -90.289210324329275, 45.920334300322324 ], [ -90.292583544444227, 45.921547298385988 ], [ -90.295770329135905, 45.922985122608381 ], [ -90.298740008138125, 45.924633943138005 ], [ -90.301463992096487, 45.926477899041664 ], [ -90.303916047502454, 45.928499250359572 ], [ -90.30607254933507, 45.930678548246959 ], [ -90.307912708977938, 45.932994821591144 ], [ -90.30941877520128, 45.93542577833275 ], [ -90.310576206244491, 45.93794801957695 ], [ -90.311373811298509, 45.940537264454839 ], [ -90.311803859971121, 45.943168583588054 ], [ -90.311862158615796, 45.945816638922466 ], [ -90.311548092717317, 45.948455927631123 ], [ -90.310864634849111, 45.951061027742135 ], [ -90.309818318047405, 45.953606843125144 ], [ -90.308419174781449, 45.956068845471137 ], [ -90.306680642035104, 45.958423310924154 ], [ -90.304619433347909, 45.960647549070352 ], [ -90.302255378992257, 45.962720122059281 ], [ -90.299611235781683, 45.964621051724166 ], [ -90.29671246831127, 45.966332012681086 ], [ -90.293587003721129, 45.967836509520254 ], [ -90.290264962344565, 45.969120036355989 ], [ -90.286778366849887, 45.970170217171933 ], [ -90.28316083270694, 45.970976925585077 ], [ -90.279447243003162, 45.971532382852814 ], [ -90.27567341079677, 45.97183123316065 ], [ -90.271875732324304, 45.971870595450596 ], [ -90.268090834475572, 45.971650091282044 ], [ -90.264355220008582, 45.971171848451547 ], [ -90.260704914000414, 45.970440480338645 ], [ -90.25717511501631, 45.969463041181804 ], [ -90.253799854429516, 45.968248957727553 ], [ -90.250611667238346, 45.966809937926371 ], [ -90.247641277606135, 45.965159857575209 ], [ -90.244917302196228, 45.963314626021472 ], [ -90.242465974188491, 45.961292032247535 ], [ -90.240310890650193, 45.959111572844982 ], [ -90.238472785693361, 45.956794263562877 ], [ -90.236969331587247, 45.95436243627104 ], [ -90.235814969710276, 45.95183952331903 ], [ -90.235020772925225, 45.949249831389047 ], [ -90.234594340646581, 45.946618307039422 ], [ -90.234539727545027, 45.943970296210594 ] ] ] } }
]
}
