{
"type": "FeatureCollection",
"crs": { "type": "name", "properties": { "name": "urn:ogc:def:crs:OGC:1.3:CRS84" } },
"features": [
{ "type": "Feature", "properties": { "Site Name": "Baotou", "location_name": "China cal/val", "country": "China", "longitude": 109.629437, "latitude": 40.851787, "remote_sensing_domain": "Optical Multi/Hyper", "evaluation_category": "Radiometric & Geometric", "assessment_types": "", "aoi_shape": "box", "max_aoi_cloud_pct": 0.0, "max_scene_cloud_pct": 0.0, "aoi_size_km": 0.04, "max_view_angle": 15.0, "min_num_acqs": 1.0, "ideal_num_acqs": 0.0 }, "geometry": { "type": "Polygon", "coordinates": [ [ [ 109.629677920662715, 40.851609700759859 ], [ 109.629670497430169, 40.851969936336722 ], [ 109.629196078053269, 40.851964298711032 ], [ 109.629203503853844, 40.851604063205357 ], [ 109.629677920662715, 40.851609700759859 ] ] ] } },
{ "type": "Feature", "properties": { "Site Name": "Gobabeb", "location_name": "Gobabeb", "country": "Namibia", "longitude": 15.11956, "latitude": -23.6002, "remote_sensing_domain": "Optical Multi/Hyper", "evaluation_category": "Radiometric", "assessment_types": "", "aoi_shape": "circle", "max_aoi_cloud_pct": 0.0, "max_scene_cloud_pct": 0.0, "aoi_size_km": 3.0, "max_view_angle": 10.0, "min_num_acqs": 5.0, "ideal_num_acqs": 10.0 }, "geometry": { "type": "Polygon", "coordinates": [ [ [ 15.148965101082112, -23.600174577664383 ], [ 15.148826505007436, -23.602830798742978 ], [ 15.148406040146723, -23.605461708908482 ], [ 15.147707739441827, -23.608041968912019 ], [ 15.146738312798069, -23.610546725885037 ], [ 15.145507083046004, -23.612951852821812 ], [ 15.144025896669106, -23.615234181120758 ], [ 15.142309010137335, -23.617371723937776 ], [ 15.140372952924908, -23.619343888191967 ], [ 15.138236368519218, -23.621131673171977 ], [ 15.135919834944417, -23.622717853819424 ], [ 15.133445666525267, -23.6240871469127 ], [ 15.130837698802509, -23.625226358539411 ], [ 15.128121058678317, -23.626124511425946 ], [ 15.125321922017095, -23.626772950887801 ], [ 15.122467261051977, -23.627165428371121 ], [ 15.119584584049228, -23.627298161773648 ], [ 15.116701669759932, -23.627169871958305 ], [ 15.113846299240709, -23.626781795104495 ], [ 15.111045987651442, -23.626137670776814 ], [ 15.108327718638286, -23.625243705827128 ], [ 15.105717683884336, -23.624108514480859 ], [ 15.103241030358763, -23.622743035189959 ], [ 15.10092161771817, -23.621160425060417 ], [ 15.098781788212728, -23.619375932880192 ], [ 15.096842151324999, -23.617406751980187 ], [ 15.095121385222892, -23.615271854356596 ], [ 15.0936360569413, -23.612991807663445 ], [ 15.092400463021663, -23.610588576849224 ], [ 15.091426492136828, -23.608085312359069 ], [ 15.09072351101214, -23.605506126952303 ], [ 15.090298274725379, -23.602875863293374 ], [ 15.090154862229744, -23.600219854562091 ], [ 15.090294637698578, -23.597563680393552 ], [ 15.09071623803993, -23.594932920501741 ], [ 15.091415586676083, -23.592352908360599 ], [ 15.092385933430327, -23.589848487313485 ], [ 15.093617920112777, -23.587443771456673 ], [ 15.095099671151546, -23.585161913594188 ], [ 15.096816908377019, -23.583024882491536 ], [ 15.098753088837995, -23.581053251564732 ], [ 15.100889564310672, -23.579266001029648 ], [ 15.103205760957099, -23.577680335406257 ], [ 15.105679377400474, -23.576311518124072 ], [ 15.108286599312143, -23.575172724810304 ], [ 15.111002328451029, -23.574274916663057 ], [ 15.113800423961399, -23.573626735118662 ], [ 15.116653953620963, -23.573234418819336 ], [ 15.119535452638932, -23.573101743673142 ], [ 15.122417187533545, -23.573229986578397 ], [ 15.125271422571682, -23.573617913158404 ], [ 15.128070686229387, -23.574261789623527 ], [ 15.130788035131955, -23.575155418647125 ], [ 15.133397312955617, -23.576290198913242 ], [ 15.135873401819611, -23.577655207767517 ], [ 15.138192463766943, -23.579237306182577 ], [ 15.140332170024363, -23.581021265035375 ], [ 15.142271915845628, -23.582989911490483 ], [ 15.14399301887655, -23.585124294090129 ], [ 15.145478899134224, -23.587403864972362 ], [ 15.14671523886506, -23.589806677473824 ], [ 15.147690120735099, -23.592309597224872 ], [ 15.148394143010346, -23.59488852471436 ], [ 15.148820510602215, -23.597518627189388 ], [ 15.148965101082112, -23.600174577664383 ] ] ] } },
{ "type": "Feature", "properties": { "Site Name": "La Crau", "location_name": "La Crau", "country": "France", "longitude": 4.864167, "latitude": 43.558889, "remote_sensing_domain": "Optical Multi/Hyper", "evaluation_category": "Radiometric & Geometric", "assessment_types": "", "aoi_shape": "circle", "max_aoi_cloud_pct": 0.0, "max_scene_cloud_pct": 0.0, "aoi_size_km": 3.0, "max_view_angle": 10.0, "min_num_acqs": 0.0, "ideal_num_acqs": 0.0 }, "geometry": { "type": "Polygon", "coordinates": [ [ [ 4.901291198581585, 43.558277447244997 ], [ 4.90102921481548, 43.555634180018394 ], [ 4.900412290887631, 43.553022311590532 ], [ 4.899446411851202, 43.550466989242935 ], [ 4.898140919270441, 43.547992812769628 ], [ 4.896508419736704, 43.545623597928312 ], [ 4.894564662157778, 43.543382147540022 ], [ 4.892328385052035, 43.541290032424413 ], [ 4.889821135357454, 43.539367384259137 ], [ 4.887067060528173, 43.537632702335635 ], [ 4.884092675935615, 43.536102676047776 ], [ 4.880926609815734, 43.534792024798371 ], [ 4.877599328206816, 43.533713356840657 ], [ 4.874142842501959, 43.532877048391931 ], [ 4.870590402395969, 43.5322911441624 ], [ 4.866976177136366, 43.531961280240111 ], [ 4.863334928092271, 43.531890630060893 ], [ 4.859701675731779, 43.532079873974013 ], [ 4.856111364148239, 43.532527192691795 ], [ 4.852598526297627, 43.533228284686473 ], [ 4.849196953103397, 43.534176407371149 ], [ 4.845939369551402, 43.535362441677833 ], [ 4.842857120836074, 43.536774979424194 ], [ 4.839979871530455, 43.538400432644963 ], [ 4.837335320637255, 43.540223163855529 ], [ 4.834948935236782, 43.542225636016134 ], [ 4.832843705281182, 43.544388580776342 ], [ 4.831039921894042, 43.546691183404668 ], [ 4.8295549813215, 43.549111282646244 ], [ 4.82840321644693, 43.551625583607269 ], [ 4.827595757527997, 43.554209881636531 ], [ 4.827140423544102, 43.556839295065707 ], [ 4.827041645256597, 43.559488504581104 ], [ 4.827300420785411, 43.562131996931441 ], [ 4.827914304197205, 43.564744310629571 ], [ 4.828877427284028, 43.567300281282513 ], [ 4.830180554391171, 43.569775284182235 ], [ 4.831811169831091, 43.572145471812028 ], [ 4.833753597100712, 43.57438800396713 ], [ 4.835989148804793, 43.576481268256231 ], [ 4.838496305882264, 43.578405088839602 ], [ 4.841250924438346, 43.580140921370436 ], [ 4.844226468206641, 43.581672032237677 ], [ 4.847394264404823, 43.5829836603587 ], [ 4.850723780508735, 43.584063159939589 ], [ 4.8541829192549, 43.584900122804207 ], [ 4.857738328993578, 43.585486479093511 ], [ 4.861355726355834, 43.585816575346968 ], [ 4.865000228070304, 43.585887229200381 ], [ 4.868636688670446, 43.585697760163335 ], [ 4.872230040771928, 43.585249996174852 ], [ 4.875745634573271, 43.584548255874246 ], [ 4.879149573241309, 43.58359930676248 ], [ 4.882409040886353, 43.582412299666707 ], [ 4.885492619909372, 43.580998680153044 ], [ 4.888370594614438, 43.579372077758507 ], [ 4.891015238122274, 43.577548174129781 ], [ 4.893401079793583, 43.575544551362057 ], [ 4.895505150571561, 43.57338052202288 ], [ 4.897307203879273, 43.571076942523547 ], [ 4.89878990995663, 43.568656011659449 ], [ 4.899939021790661, 43.566141056283136 ], [ 4.900743511078522, 43.563556306194613 ], [ 4.901195672961976, 43.560926660434575 ], [ 4.901291198581585, 43.558277447244997 ] ] ] } },
{ "type": "Feature", "properties": { "Site Name": "PICS Libya-4", "location_name": "PICS Libya-4", "country": "Libya", "longitude": 23.39, "latitude": 28.55, "remote_sensing_domain": "Optical Multi/Hyper", "evaluation_category": "Radiometric", "assessment_types": "", "aoi_shape": "custom", "max_aoi_cloud_pct": 0.0, "max_scene_cloud_pct": 0.0, "aoi_size_km": 3.0, "max_view_angle": 0.0, "min_num_acqs": 5.0, "ideal_num_acqs": 10.0 }, "geometry": { "type": "Polygon", "coordinates": [ [ [ 23.39665038, 28.55833333 ], [ 23.39109758, 28.53333333 ], [ 23.40058302, 28.53333333 ], [ 23.40613807, 28.55833333 ], [ 23.39665038, 28.55833333 ] ] ] } },
{ "type": "Feature", "properties": { "Site Name": "Railroad Valley", "location_name": "Nevada", "country": "USA", "longitude": -115.69, "latitude": 38.497, "remote_sensing_domain": "Optical Multi/Hyper", "evaluation_category": "Radiometric", "assessment_types": "", "aoi_shape": "circle", "max_aoi_cloud_pct": 0.0, "max_scene_cloud_pct": 0.0, "aoi_size_km": 3.0, "max_view_angle": 10.0, "min_num_acqs": 5.0, "ideal_num_acqs": 10.0 }, "geometry": { "type": "Polygon", "coordinates": [ [ [ -115.65560626354042, 38.496610199621095 ], [ -115.655821114751859, 38.493962800077007 ], [ -115.656365081753165, 38.491344695110477 ], [ -115.657232891715424, 38.488781093396277 ], [ -115.658416156095925, 38.486296676248543 ], [ -115.65990345261541, 38.483915360218255 ], [ -115.661680436288194, 38.481660067138804 ], [ -115.66372997839558, 38.47955250381996 ], [ -115.666032332033339, 38.477612953494912 ], [ -115.668565322616445, 38.475860081009728 ], [ -115.671304561493955, 38.474310753610979 ], [ -115.674223680614574, 38.472979879037162 ], [ -115.677294585991163, 38.471880262452267 ], [ -115.680487727541674, 38.471022483580626 ], [ -115.683772382735114, 38.470414795208477 ], [ -115.687116951347321, 38.470063044015042 ], [ -115.690489258529993, 38.469970614483792 ], [ -115.693856863323461, 38.47013839642549 ], [ -115.697187369692415, 38.470564776421803 ], [ -115.700448737143233, 38.471245653270685 ], [ -115.703609587983621, 38.472174477289151 ], [ -115.706639508315462, 38.473342313101561 ], [ -115.70950933990791, 38.474737925320397 ], [ -115.712191460179255, 38.476347886308062 ], [ -115.714660047622786, 38.478156704999037 ], [ -115.716891330143454, 38.480146975560615 ], [ -115.718863813927086, 38.482299544480377 ], [ -115.720558490640073, 38.484593694492375 ], [ -115.721959020957556, 38.487007343590726 ], [ -115.723051892634032, 38.489517257233615 ], [ -115.723826551567356, 38.49209927171156 ], [ -115.72427550455825, 38.494728526543987 ], [ -115.724394392732833, 38.497379703677964 ], [ -115.724182034872925, 38.500027271194334 ], [ -115.723640440184994, 38.502645729178639 ], [ -115.722774790331286, 38.505209855389865 ], [ -115.721593390842841, 38.507694948357745 ], [ -115.720107592332099, 38.51007706555994 ], [ -115.718331682217141, 38.512333254374525 ], [ -115.716282747960392, 38.514441773569125 ], [ -115.713980513106634, 38.516382303176805 ], [ -115.711447147675955, 38.518136140718219 ], [ -115.708707054724428, 38.519686381860211 ], [ -115.705786635124838, 38.521018083749638 ], [ -115.702714032840987, 38.522118409429197 ], [ -115.699518863166091, 38.522976751924425 ], [ -115.69623192657086, 38.52358483678934 ], [ -115.6928849109525, 38.523936802107663 ], [ -115.689510085196432, 38.52402925516725 ], [ -115.686139987049827, 38.523861305253114 ], [ -115.682807108366262, 38.523434572238735 ], [ -115.679543580806111, 38.522753170892422 ], [ -115.676380865073511, 38.521823671053347 ], [ -115.673349446733354, 38.520655034068547 ], [ -115.670478541584046, 38.519258526114221 ], [ -115.667795813463513, 38.517647609250581 ], [ -115.665327107237644, 38.51583781127691 ], [ -115.66309619956607, 38.513846575659244 ], [ -115.661124569857762, 38.511693092996545 ], [ -115.659431193624499, 38.509398115669349 ], [ -115.658032360214463, 38.506983757476803 ], [ -115.656941516661917, 38.504473280210782 ], [ -115.656169139129389, 38.501890869240441 ], [ -115.655722633143242, 38.499261400283352 ], [ -115.65560626354042, 38.496610199621095 ] ] ] } },
{ "type": "Feature", "properties": { "Site Name": "Valencia", "location_name": "ESP-VLC2, El Palmar", "country": "Spain", "longitude": -0.3263, "latitude": 39.2979, "remote_sensing_domain": "Optical Multi/Hyper", "evaluation_category": "Radiometric", "assessment_types": "", "aoi_shape": "circle", "max_aoi_cloud_pct": 0.0, "max_scene_cloud_pct": 0.0, "aoi_size_km": 3.0, "max_view_angle": 10.0, "min_num_acqs": 3.0, "ideal_num_acqs": 15.0 }, "geometry": { "type": "Polygon", "coordinates": [ [ [ -0.291546965885427, 39.297096148352857 ], [ -0.291816353302471, 39.29445334297543 ], [ -0.29241777993911, 39.291843775421178 ], [ -0.293345418909031, 39.289292570983214 ], [ -0.294590305265424, 39.28682429044224 ], [ -0.296140423537838, 39.284462693868548 ], [ -0.297980824464519, 39.282230512215889 ], [ -0.300093769757162, 39.280149228891069 ], [ -0.302458903473706, 39.278238873384026 ], [ -0.305053448328054, 39.276517828926082 ], [ -0.307852425036077, 39.275002656007047 ], [ -0.310828892586055, 39.273707933429748 ], [ -0.313954207131096, 39.272646118411814 ], [ -0.317198297031979, 39.271827427063073 ], [ -0.320529951432837, 39.271259736372173 ], [ -0.323917119630062, 39.270948508632337 ], [ -0.327327218397605, 39.270896739023243 ], [ -0.330727444360276, 39.271104926846583 ], [ -0.334085088461045, 39.271571070689276 ], [ -0.337367849549201, 39.272290687562112 ], [ -0.340544144123559, 39.273256855834632 ], [ -0.343583409298791, 39.274460281561907 ], [ -0.346456396123056, 39.275889387576989 ], [ -0.349135450461205, 39.277530424507205 ], [ -0.351594778769231, 39.279367602662809 ], [ -0.353810696221558, 39.281383243548568 ], [ -0.355761854812418, 39.283557949559572 ], [ -0.357429449234643, 39.285870790249106 ], [ -0.358797398542344, 39.288299503394654 ], [ -0.359852501826894, 39.290820708945731 ], [ -0.360584566376122, 39.293410133810134 ], [ -0.360986507043357, 39.296042845328216 ], [ -0.361054415823037, 39.29869349119793 ], [ -0.36078760091155, 39.30133654354762 ], [ -0.360188594822375, 39.303946544809044 ], [ -0.359263131421618, 39.306498353021958 ], [ -0.358020092050222, 39.308967384202923 ], [ -0.356471421200043, 39.311329849435047 ], [ -0.35463201250918, 39.313562984382514 ], [ -0.352519566134798, 39.315645269004001 ], [ -0.350154418845724, 39.317556635330256 ], [ -0.347559348449537, 39.319278661284763 ], [ -0.344759354426556, 39.320794748659345 ], [ -0.34178141688327, 39.322090283509162 ], [ -0.33865423615755, 39.323152777401347 ], [ -0.335407955604892, 39.323971988137288 ], [ -0.332073870266716, 39.324540018768573 ], [ -0.328684124266256, 39.324851393938232 ], [ -0.325271399893185, 39.324903112800911 ], [ -0.321868601423337, 39.324694678005116 ], [ -0.318508536773845, 39.324228100454896 ], [ -0.315223600115821, 39.323507879806677 ], [ -0.312045458556418, 39.32254096089364 ], [ -0.309004745959569, 39.321336666507477 ], [ -0.306130766900679, 39.319906607197204 ], [ -0.303451213645851, 39.318264568970143 ], [ -0.300991898912087, 39.316426379995313 ], [ -0.298776507003218, 39.314409757613198 ], [ -0.296826365728575, 39.312234137146966 ], [ -0.295160241300365, 39.30992048418539 ], [ -0.293794158173389, 39.30749109216611 ], [ -0.292741245539996, 39.304969367228274 ], [ -0.292011611926893, 39.302379602423848 ], [ -0.291612249061312, 39.299746743476156 ], [ -0.291546965885427, 39.297096148352857 ] ] ] } },
{ "type": "Feature", "properties": { "Site Name": "Golmud", "location_name": "Tibetan Plateau", "country": "China", "longitude": 94.3286, "latitude": 36.3977, "remote_sensing_domain": "Optical Multi/Hyper", "evaluation_category": "Radiometric", "assessment_types": "", "aoi_shape": "circle", "max_aoi_cloud_pct": 0.0, "max_scene_cloud_pct": 0.0, "aoi_size_km": 3.0, "max_view_angle": 10.0, "min_num_acqs": 5.0, "ideal_num_acqs": 10.0 }, "geometry": { "type": "Polygon", "coordinates": [ [ [ 94.362045584736777, 36.397323206280163 ], [ 94.361838293976774, 36.394674818588008 ], [ 94.361310941652945, 36.392055606352329 ], [ 94.360468637203539, 36.38949078922537 ], [ 94.359319520448764, 36.38700506072604 ], [ 94.357874682127019, 36.384622350700397 ], [ 94.35614805616072, 36.382365595213663 ], [ 94.354156284724496, 36.38025651607613 ], [ 94.35191855744344, 36.37831541211046 ], [ 94.349456426290274, 36.376560964152915 ], [ 94.34679359797498, 36.375010055647685 ], [ 94.34395570582825, 36.373677610542785 ], [ 94.340970063368289, 36.372576450029996 ], [ 94.33786540190745, 36.371717169490616 ], [ 94.334671594700779, 36.371108036816075 ], [ 94.331419370260633, 36.370754913068907 ], [ 94.328140017559591, 36.370661196237208 ], [ 94.324865085917168, 36.370827788616879 ], [ 94.321626082414298, 36.371253088131297 ], [ 94.31845416970144, 36.371933003672197 ], [ 94.315379867063584, 36.372860994316945 ], [ 94.312432757575706, 36.374028132051663 ], [ 94.309641204127928, 36.375423187406497 ], [ 94.307032077019898, 36.377032737191278 ], [ 94.304630495718968, 36.378841293310096 ], [ 94.302459587248933, 36.380831451431227 ], [ 94.300540263524084, 36.382984058099808 ], [ 94.298891019770892, 36.385278394702688 ], [ 94.297527755985385, 36.387692376532804 ], [ 94.296463623161557, 36.390202765053992 ], [ 94.295708895796693, 36.392785391338101 ], [ 94.295270871933212, 36.395415388536527 ], [ 94.295153801738593, 36.398067431158893 ], [ 94.295358845354556, 36.400715978861662 ], [ 94.295884060468154, 36.403335522403843 ], [ 94.296724419772843, 36.405900829401254 ], [ 94.29787185819923, 36.408387187509618 ], [ 94.299315349506088, 36.410770642687325 ], [ 94.301041011536086, 36.413028230233436 ], [ 94.303032239158171, 36.415138196362086 ], [ 94.305269863645762, 36.417080208164052 ], [ 94.307732336976528, 36.418835549915428 ], [ 94.310395939290885, 36.420387303824036 ], [ 94.313235007513825, 36.421720513453465 ], [ 94.316222182931227, 36.422822328231675 ], [ 94.319328675320094, 36.423682127634279 ], [ 94.322524541063785, 36.424291623830186 ], [ 94.325778972541471, 36.424644941786958 ], [ 94.329060595965316, 36.42473867605306 ], [ 94.3323377747531, 36.424571923662675 ], [ 94.335578915467295, 36.424146292841499 ], [ 94.338752773325524, 36.423465887429749 ], [ 94.34182875429191, 36.422537267175571 ], [ 94.344777210794291, 36.421369384288376 ], [ 94.347569728177518, 36.419973496873858 ], [ 94.350179399098494, 36.418363060097761 ], [ 94.352581083191509, 36.416553596142613 ], [ 94.354751649482623, 36.414562544227749 ], [ 94.356670199207358, 36.412409092156047 ], [ 94.358318266883657, 36.410113991029007 ], [ 94.359679997711567, 36.407699354933897 ], [ 94.36074229960775, 36.405188447549889 ], [ 94.36149496843646, 36.402605457744748 ], [ 94.361930785263596, 36.399975266336909 ], [ 94.362045584736777, 36.397323206280163 ] ] ] } },
{ "type": "Feature", "properties": { "Site Name": "WLEF", "location_name": "WLEF tower", "country": "USA", "longitude": -90.2732, "latitude": 45.9449, "remote_sensing_domain": "Optical Multi/Hyper", "evaluation_category": "Radiometric", "assessment_types": "", "aoi_shape": "circle", "max_aoi_cloud_pct": 0.0, "max_scene_cloud_pct": 0.0, "aoi_size_km": 3.0, "max_view_angle": 10.0, "min_num_acqs": 3.0, "ideal_num_acqs": 15.0 }, "geometry": { "type": "Polygon", "coordinates": [ [ [ -90.234539727545027, 45.943970296210594 ], [ -90.234857406502599, 45.941331300019179 ], [ -90.235544266098202, 45.938726729195821 ], [ -90.236593642569261, 45.936181659530682 ], [ -90.237995385865204, 45.933720590675293 ], [ -90.239735959084513, 45.931367210612144 ], [ -90.241798570273332, 45.929144168044189 ], [ -90.244163335261788, 45.927072854876528 ], [ -90.246807469926978, 45.925173200861664 ], [ -90.24970551000203, 45.923463482361079 ], [ -90.252829556300085, 45.921960147037616 ], [ -90.256149542991849, 45.920677656140519 ], [ -90.25963352636937, 45.919628345875573 ], [ -90.263247991344969, 45.918822309170956 ], [ -90.266958172777635, 45.91826729895584 ], [ -90.27072838858723, 45.917968653864733 ], [ -90.274522381513506, 45.917929247069203 ], [ -90.278303666300275, 45.918149458720244 ], [ -90.282035879037664, 45.918627172262546 ], [ -90.285683125375243, 45.919357794656882 ], [ -90.289210324329275, 45.920334300322324 ], [ -90.292583544444227, 45.921547298385988 ], [ -90.295770329135905, 45.922985122608381 ], [ -90.298740008138125, 45.924633943138005 ], [ -90.301463992096487, 45.926477899041664 ], [ -90.303916047502454, 45.928499250359572 ], [ -90.30607254933507, 45.930678548246959 ], [ -90.307912708977938, 45.932994821591144 ], [ -90.30941877520128, 45.93542577833275 ], [ -90.310576206244491, 45.93794801957695 ], [ -90.311373811298509, 45.940537264454839 ], [ -90.311803859971121, 45.943168583588054 ], [ -90.311862158615796, 45.945816638922466 ], [ -90.311548092717317, 45.948455927631123 ], [ -90.310864634849111, 45.951061027742135 ], [ -90.309818318047405, 45.953606843125144 ], [ -90.308419174781449, 45.956068845471137 ], [ -90.306680642035104, 45.958423310924154 ], [ -90.304619433347909, 45.960647549070352 ], [ -90.302255378992257, 45.962720122059281 ], [ -90.299611235781683, 45.964621051724166 ], [ -90.29671246831127, 45.966332012681086 ], [ -90.293587003721129, 45.967836509520254 ], [ -90.290264962344565, 45.969120036355989 ], [ -90.286778366849887, 45.970170217171933 ], [ -90.28316083270694, 45.970976925585077 ], [ -90.279447243003162, 45.971532382852814 ], [ -90.27567341079677, 45.97183123316065 ], [ -90.271875732324304, 45.971870595450596 ], [ -90.268090834475572, 45.971650091282044 ], [ -90.264355220008582, 45.971171848451547 ], [ -90.260704914000414, 45.970440480338645 ], [ -90.25717511501631, 45.969463041181804 ], [ -90.253799854429516, 45.968248957727553 ], [ -90.250611667238346, 45.966809937926371 ], [ -90.247641277606135, 45.965159857575209 ], [ -90.244917302196228, 45.963314626021472 ], [ -90.242465974188491, 45.961292032247535 ], [ -90.240310890650193, 45.959111572844982 ], [ -90.238472785693361, 45.956794263562877 ], [ -90.236969331587247, 45.95436243627104 ], [ -90.235814969710276, 45.95183952331903 ], [ -90.235020772925225, 45.949249831389047 ], [ -90.234594340646581, 45.946618307039422 ], [ -90.234539727545027, 45.943970296210594 ] ] ] } }
]
}
