{
"type": "FeatureCollection",
"name": "hls_processed_tiles",
"crs": { "type": "name", "properties": { "name": "urn:ogc:def:crs:OGC:1.3:CRS84" } },
"features": [
{ "type": "Feature", "properties": { "id": null, "Name": "03WVM", "description": null, "timestamp": null, "begin": null, "end": null, "altitudeMode": null, "tessellate": -1, "extrude": 0, "visibility": -1, "drawOrder": null, "icon": null, "Name_T": "T03WVM", "Tiles": "03WVM" }, "geometry": { "type": "MultiPolygon", "coordinates": [ [ [ [ -167.114567597, 64.909134773000105, 0.0 ], [ -164.793616232, 64.923995536000106, 0.0 ], [ -164.800894395, 63.9387125820001, 0.0 ], [ -167.040060509999989, 63.924491106000097, 0.0 ], [ -167.114567597, 64.909134773000105, 0.0 ] ] ] ] } },
{ "type": "Feature", "properties": { "id": null, "Name": "03WVN", "description": null, "timestamp": null, "begin": null, "end": null, "altitudeMode": null, "tessellate": -1, "extrude": 0, "visibility": -1, "drawOrder": null, "icon": null, "Name_T": "T03WVN", "Tiles": "03WVN" }, "geometry": { "type": "MultiPolygon", "coordinates": [ [ [ [ -167.187917456, 65.805918200000093, 0.0 ], [ -164.786450435, 65.821403518000096, 0.0 ], [ -164.794288511, 64.836240762, 0.0 ], [ -167.107685718, 64.821438831000094, 0.0 ], [ -167.187917456, 65.805918200000093, 0.0 ] ] ] ] } },
{ "type": "Feature", "properties": { "id": null, "Name": "03WWM", "description": null, "timestamp": null, "begin": null, "end": null, "altitudeMode": null, "tessellate": -1, "extrude": 0, "visibility": -1, "drawOrder": null, "icon": null, "Name_T": "T03WWM", "Tiles": "03WWM" }, "geometry": { "type": "MultiPolygon", "coordinates": [ [ [ [ -165.000422918999988, 64.924138396, 0.0 ], [ -162.679751617, 64.906072417000104, 0.0 ], [ -162.761491538, 63.921560405, 0.0 ], [ -165.000408005, 63.938849293, 0.0 ], [ -165.000422918999988, 64.924138396, 0.0 ] ] ] ] } },
{ "type": "Feature", "properties": { "id": null, "Name": "03WWN", "description": null, "timestamp": null, "begin": null, "end": null, "altitudeMode": null, "tessellate": -1, "extrude": 0, "visibility": -1, "drawOrder": null, "icon": null, "Name_T": "T03WWN", "Tiles": "03WWN" }, "geometry": { "type": "MultiPolygon", "coordinates": [ [ [ [ -165.000437603, 65.821552386000107, 0.0 ], [ -162.599282827, 65.802727233, 0.0 ], [ -162.687301493, 64.81838859, 0.0 ], [ -165.000421542, 64.836383056, 0.0 ], [ -165.000437603, 65.821552386000107, 0.0 ] ] ] ] } },
{ "type": "Feature", "properties": { "id": null, "Name": "05VNK", "description": null, "timestamp": null, "begin": null, "end": null, "altitudeMode": null, "tessellate": -1, "extrude": 0, "visibility": -1, "drawOrder": null, "icon": null, "Name_T": "T05VNK", "Tiles": "05VNK" }, "geometry": { "type": "MultiPolygon", "coordinates": [ [ [ [ -153.000396605, 63.129519214000098, 0.0 ], [ -150.823975345, 63.112828904000096, 0.0 ], [ -150.894952804000013, 62.1279765580001, 0.0 ], [ -153.000383656999986, 62.143981510000103, 0.0 ], [ -153.000396605, 63.129519214000098, 0.0 ] ] ] ] } },
{ "type": "Feature", "properties": { "id": null, "Name": "05VNL", "description": null, "timestamp": null, "begin": null, "end": null, "altitudeMode": null, "tessellate": -1, "extrude": 0, "visibility": -1, "drawOrder": null, "icon": null, "Name_T": "T05VNL", "Tiles": "05VNL" }, "geometry": { "type": "MultiPolygon", "coordinates": [ [ [ [ -153.000409293, 64.0271538800001, 0.0 ], [ -150.754428539, 64.009797589000101, 0.0 ], [ -150.830517104, 63.025114602, 0.0 ], [ -153.000395411999989, 63.041741996, 0.0 ], [ -153.000409293, 64.0271538800001, 0.0 ] ] ] ] } },
{ "type": "Feature", "properties": { "id": null, "Name": "05VPK", "description": null, "timestamp": null, "begin": null, "end": null, "altitudeMode": null, "tessellate": -1, "extrude": 0, "visibility": -1, "drawOrder": null, "icon": null, "Name_T": "T05VPK", "Tiles": "05VPK" }, "geometry": { "type": "MultiPolygon", "coordinates": [ [ [ [ -151.01768576500001, 63.115669265000101, 0.0 ], [ -148.846160943, 63.068627404, 0.0 ], [ -148.981322920999986, 62.085586545000098, 0.0 ], [ -151.082354857000013, 62.130700338000103, 0.0 ], [ -151.01768576500001, 63.115669265000101, 0.0 ] ] ] ] } },
{ "type": "Feature", "properties": { "id": null, "Name": "05VPL", "description": null, "timestamp": null, "begin": null, "end": null, "altitudeMode": null, "tessellate": -1, "extrude": 0, "visibility": -1, "drawOrder": null, "icon": null, "Name_T": "T05VPL", "Tiles": "05VPL" }, "geometry": { "type": "MultiPolygon", "coordinates": [ [ [ [ -150.954319167, 64.01275123, 0.0 ], [ -148.713755911, 63.963836265000097, 0.0 ], [ -148.858616988, 62.9810793790001, 0.0 ], [ -151.023646144, 63.027944262000098, 0.0 ], [ -150.954319167, 64.01275123, 0.0 ] ] ] ] } },
{ "type": "Feature", "properties": { "id": null, "Name": "06VVR", "description": null, "timestamp": null, "begin": null, "end": null, "altitudeMode": null, "tessellate": -1, "extrude": 0, "visibility": -1, "drawOrder": null, "icon": null, "Name_T": "T06VVR", "Tiles": "06VVR" }, "geometry": { "type": "MultiPolygon", "coordinates": [ [ [ [ -149.046498477, 64.012739710000105, 0.0 ], [ -146.800265535, 64.027016636, 0.0 ], [ -146.807039838, 63.041610518, 0.0 ], [ -148.977143834, 63.027933225000098, 0.0 ], [ -149.046498477, 64.012739710000105, 0.0 ] ] ] ] } },
{ "type": "Feature", "properties": { "id": null, "Name": "10SFG", "description": null, "timestamp": null, "begin": null, "end": null, "altitudeMode": null, "tessellate": -1, "extrude": 0, "visibility": -1, "drawOrder": null, "icon": null, "Name_T": "T10SFG", "Tiles": "10SFG" }, "geometry": { "type": "MultiPolygon", "coordinates": [ [ [ [ -121.861926068, 37.94208532, 0.0 ], [ -120.613057842, 37.923373495000099, 0.0 ], [ -120.64426763, 36.934510753, 0.0 ], [ -121.876819685, 36.952569122000099, 0.0 ], [ -121.861926068, 37.94208532, 0.0 ] ] ] ] } },
{ "type": "Feature", "properties": { "id": null, "Name": "12UXG", "description": null, "timestamp": null, "begin": null, "end": null, "altitudeMode": null, "tessellate": -1, "extrude": 0, "visibility": -1, "drawOrder": null, "icon": null, "Name_T": "T12UXG", "Tiles": "12UXG" }, "geometry": { "type": "MultiPolygon", "coordinates": [ [ [ [ -109.399203123, 55.93533538, 0.0 ], [ -107.644031712, 55.899998592, 0.0 ], [ -107.726573271, 54.915007227, 0.0 ], [ -109.438642557, 54.949074010000103, 0.0 ], [ -109.399203123, 55.93533538, 0.0 ] ] ] ] } },
{ "type": "Feature", "properties": { "id": null, "Name": "12VXH", "description": null, "timestamp": null, "begin": null, "end": null, "altitudeMode": null, "tessellate": -1, "extrude": 0, "visibility": -1, "drawOrder": null, "icon": null, "Name_T": "T12VXH", "Tiles": "12VXH" }, "geometry": { "type": "MultiPolygon", "coordinates": [ [ [ [ -109.361093572, 56.833055284000103, 0.0 ], [ -107.564283651, 56.796505151000098, 0.0 ], [ -107.651638714, 55.811736032000098, 0.0 ], [ -109.402838061, 55.846956403, 0.0 ], [ -109.361093572, 56.833055284000103, 0.0 ] ] ] ] } },
{ "type": "Feature", "properties": { "id": null, "Name": "13SCU", "description": null, "timestamp": null, "begin": null, "end": null, "altitudeMode": null, "tessellate": -1, "extrude": 0, "visibility": -1, "drawOrder": null, "icon": null, "Name_T": "T13SCU", "Tiles": "13SCU" }, "geometry": { "type": "MultiPolygon", "coordinates": [ [ [ [ -107.197541653, 35.22312494, 0.0 ], [ -105.991349951, 35.239017584000102, 0.0 ], [ -105.979591952, 34.2490077040001, 0.0 ], [ -107.1714975, 34.233687373000102, 0.0 ], [ -107.197541653, 35.22312494, 0.0 ] ] ] ] } },
{ "type": "Feature", "properties": { "id": null, "Name": "13SGR", "description": null, "timestamp": null, "begin": null, "end": null, "altitudeMode": null, "tessellate": -1, "extrude": 0, "visibility": -1, "drawOrder": null, "icon": null, "Name_T": "T13SGR", "Tiles": "13SGR" }, "geometry": { "type": "MultiPolygon", "coordinates": [ [ [ [ -102.871141153, 32.519334872000101, 0.0 ], [ -101.703535496, 32.494141727000098, 0.0 ], [ -101.738768915, 31.505173744, 0.0 ], [ -102.893923756, 31.529422327000098, 0.0 ], [ -102.871141153, 32.519334872000101, 0.0 ] ] ] ] } },
{ "type": "Feature", "properties": { "id": null, "Name": "13TCF", "description": null, "timestamp": null, "begin": null, "end": null, "altitudeMode": null, "tessellate": -1, "extrude": 0, "visibility": -1, "drawOrder": null, "icon": null, "Name_T": "T13TCF", "Tiles": "13TCF" }, "geometry": { "type": "MultiPolygon", "coordinates": [ [ [ [ -107.397182619, 41.526852301000098, 0.0 ], [ -106.081491807, 41.5467587690001, 0.0 ], [ -106.065415476, 40.557837099, 0.0 ], [ -107.361580977, 40.538607851000101, 0.0 ], [ -107.397182619, 41.526852301000098, 0.0 ] ] ] ] } },
{ "type": "Feature", "properties": { "id": null, "Name": "14SPJ", "description": null, "timestamp": null, "begin": null, "end": null, "altitudeMode": null, "tessellate": -1, "extrude": 0, "visibility": -1, "drawOrder": null, "icon": null, "Name_T": "T14SPJ", "Tiles": "14SPJ" }, "geometry": { "type": "MultiPolygon", "coordinates": [ [ [ [ -97.832842044999893, 39.744399896000097, 0.0 ], [ -96.552115024, 39.724451841000104, 0.0 ], [ -96.586239721, 38.735936431, 0.0 ], [ -97.849127779999904, 38.755198338000099, 0.0 ], [ -97.832842044999893, 39.744399896000097, 0.0 ] ] ] ] } },
{ "type": "Feature", "properties": { "id": null, "Name": "15RTP", "description": null, "timestamp": null, "begin": null, "end": null, "altitudeMode": null, "tessellate": -1, "extrude": 0, "visibility": -1, "drawOrder": null, "icon": null, "Name_T": "T15RTP", "Tiles": "15RTP" }, "geometry": { "type": "MultiPolygon", "coordinates": [ [ [ [ -96.132017488, 30.695274048, 0.0 ], [ -94.986523749999904, 30.717866420000099, 0.0 ], [ -94.966713414, 29.727589649, 0.0 ], [ -96.100820507, 29.705872941000099, 0.0 ], [ -96.132017488, 30.695274048, 0.0 ] ] ] ] } },
{ "type": "Feature", "properties": { "id": null, "Name": "15RXQ", "description": null, "timestamp": null, "begin": null, "end": null, "altitudeMode": null, "tessellate": -1, "extrude": 0, "visibility": -1, "drawOrder": null, "icon": null, "Name_T": "T15RXQ", "Tiles": "15RXQ" }, "geometry": { "type": "MultiPolygon", "coordinates": [ [ [ [ -91.945524743, 31.6311926290001, 0.0 ], [ -90.788253832999899, 31.616388568, 0.0 ], [ -90.811106683, 30.6263902580001, 0.0 ], [ -91.956428339999903, 30.640630141, 0.0 ], [ -91.945524743, 31.6311926290001, 0.0 ] ] ] ] } },
{ "type": "Feature", "properties": { "id": null, "Name": "17RLP", "description": null, "timestamp": null, "begin": null, "end": null, "altitudeMode": null, "tessellate": -1, "extrude": 0, "visibility": -1, "drawOrder": null, "icon": null, "Name_T": "T17RLP", "Tiles": "17RLP" }, "geometry": { "type": "MultiPolygon", "coordinates": [ [ [ [ -83.088603371, 30.716263663000099, 0.0 ], [ -81.942170362, 30.729650251000098, 0.0 ], [ -81.932768946, 29.738916596, 0.0 ], [ -83.067776793999897, 29.726049026000101, 0.0 ], [ -83.088603371, 30.716263663000099, 0.0 ] ] ] ] } },
{ "type": "Feature", "properties": { "id": null, "Name": "18MVS", "description": null, "timestamp": null, "begin": null, "end": null, "altitudeMode": null, "tessellate": -1, "extrude": 0, "visibility": -1, "drawOrder": null, "icon": null, "Name_T": "T18MVS", "Tiles": "18MVS" }, "geometry": { "type": "MultiPolygon", "coordinates": [ [ [ [ -75.906167645, -7.23638323099993, 0.0 ], [ -74.911589668, -7.23727611899994, 0.0 ], [ -74.911382653, -8.230489085999981, 0.0 ], [ -75.908289108, -8.22947212599996, 0.0 ], [ -75.906167645, -7.23638323099993, 0.0 ] ] ] ] } },
{ "type": "Feature", "properties": { "id": null, "Name": "18SUJ", "description": null, "timestamp": null, "begin": null, "end": null, "altitudeMode": null, "tessellate": -1, "extrude": 0, "visibility": -1, "drawOrder": null, "icon": null, "Name_T": "T18SUJ", "Tiles": "18SUJ" }, "geometry": { "type": "MultiPolygon", "coordinates": [ [ [ [ -77.333632831, 39.726805953000103, 0.0 ], [ -76.052795628, 39.745493545, 0.0 ], [ -76.038104884999896, 38.756254358, 0.0 ], [ -77.301097327, 38.738209588000103, 0.0 ], [ -77.333632831, 39.726805953000103, 0.0 ] ] ] ] } },
{ "type": "Feature", "properties": { "id": null, "Name": "18TXM", "description": null, "timestamp": null, "begin": null, "end": null, "altitudeMode": null, "tessellate": -1, "extrude": 0, "visibility": -1, "drawOrder": null, "icon": null, "Name_T": "T18TXM", "Tiles": "18TXM" }, "geometry": { "type": "MultiPolygon", "coordinates": [ [ [ [ -73.784002976999901, 42.446240862, 0.0 ], [ -72.449787067, 42.424314137000103, 0.0 ], [ -72.488863453, 41.4363363800001, 0.0 ], [ -73.802654043, 41.4575201910001, 0.0 ], [ -73.784002976999901, 42.446240862, 0.0 ] ] ] ] } },
{ "type": "Feature", "properties": { "id": null, "Name": "19LGC", "description": null, "timestamp": null, "begin": null, "end": null, "altitudeMode": null, "tessellate": -1, "extrude": 0, "visibility": -1, "drawOrder": null, "icon": null, "Name_T": "T19LGC", "Tiles": "19LGC" }, "geometry": { "type": "MultiPolygon", "coordinates": [ [ [ [ -67.137088419, -15.3688059409999, 0.0 ], [ -66.114910911, -15.357911491, 0.0 ], [ -66.10077524, -16.349290394, 0.0 ], [ -67.127951899, -16.360925172, 0.0 ], [ -67.137088419, -15.3688059409999, 0.0 ] ] ] ] } },
{ "type": "Feature", "properties": { "id": null, "Name": "19LHC", "description": null, "timestamp": null, "begin": null, "end": null, "altitudeMode": null, "tessellate": -1, "extrude": 0, "visibility": -1, "drawOrder": null, "icon": null, "Name_T": "T19LHC", "Tiles": "19LHC" }, "geometry": { "type": "MultiPolygon", "coordinates": [ [ [ [ -66.205922379, -15.359071663, 0.0 ], [ -65.184630631999894, -15.343921467, 0.0 ], [ -65.165960839, -16.334349804999899, 0.0 ], [ -66.192231175, -16.350529401, 0.0 ], [ -66.205922379, -15.359071663, 0.0 ] ] ] ] } },
{ "type": "Feature", "properties": { "id": null, "Name": "20JNS", "description": null, "timestamp": null, "begin": null, "end": null, "altitudeMode": null, "tessellate": -1, "extrude": 0, "visibility": -1, "drawOrder": null, "icon": null, "Name_T": "T20JNS", "Tiles": "20JNS" }, "geometry": { "type": "MultiPolygon", "coordinates": [ [ [ [ -63.000198709, -25.316192144, 0.0 ], [ -61.90936707, -25.312157617, 0.0 ], [ -61.900252086, -26.303480549, 0.0 ], [ -63.00020037, -26.307696431, 0.0 ], [ -63.000198709, -25.316192144, 0.0 ] ] ] ] } },
{ "type": "Feature", "properties": { "id": null, "Name": "20NQP", "description": null, "timestamp": null, "begin": null, "end": null, "altitudeMode": null, "tessellate": -1, "extrude": 0, "visibility": -1, "drawOrder": null, "icon": null, "Name_T": "T20NQP", "Tiles": "20NQP" }, "geometry": { "type": "MultiPolygon", "coordinates": [ [ [ [ -61.185145386, 8.137978067000059, 0.0 ], [ -60.189266142999898, 8.132306259000069, 0.0 ], [ -60.195745895, 7.14028741300007, 0.0 ], [ -61.189333182, 7.14525992200004, 0.0 ], [ -61.185145386, 8.137978067000059, 0.0 ] ] ] ] } },
{ "type": "Feature", "properties": { "id": null, "Name": "20NRP", "description": null, "timestamp": null, "begin": null, "end": null, "altitudeMode": null, "tessellate": -1, "extrude": 0, "visibility": -1, "drawOrder": null, "icon": null, "Name_T": "T20NRP", "Tiles": "20NRP" }, "geometry": { "type": "MultiPolygon", "coordinates": [ [ [ [ -60.277939314, 8.132910271000069, 0.0 ], [ -59.282841534999903, 8.125022545000039, 0.0 ], [ -59.291400658, 7.13390171200007, 0.0 ], [ -60.284215265999897, 7.14081695500005, 0.0 ], [ -60.277939314, 8.132910271000069, 0.0 ] ] ] ] } },
{ "type": "Feature", "properties": { "id": null, "Name": "22JDM", "description": null, "timestamp": null, "begin": null, "end": null, "altitudeMode": null, "tessellate": -1, "extrude": 0, "visibility": -1, "drawOrder": null, "icon": null, "Name_T": "T22JDM", "Tiles": "22JDM" }, "geometry": { "type": "MultiPolygon", "coordinates": [ [ [ [ -52.035420201, -29.826409522999899, 0.0 ], [ -50.89897658, -29.830428692999899, 0.0 ], [ -50.897954558, -30.821280034, 0.0 ], [ -52.045892928999898, -30.817099015999901, 0.0 ], [ -52.035420201, -29.826409522999899, 0.0 ] ] ] ] } },
{ "type": "Feature", "properties": { "id": null, "Name": "22JDN", "description": null, "timestamp": null, "begin": null, "end": null, "altitudeMode": null, "tessellate": -1, "extrude": 0, "visibility": -1, "drawOrder": null, "icon": null, "Name_T": "T22JDN", "Tiles": "22JDN" }, "geometry": { "type": "MultiPolygon", "coordinates": [ [ [ [ -52.02632446, -28.923829500999901, 0.0 ], [ -50.899864217999898, -28.927703933, 0.0 ], [ -50.898887596, -29.918690931, 0.0 ], [ -52.036332027999897, -29.914657471999899, 0.0 ], [ -52.02632446, -28.923829500999901, 0.0 ] ] ] ] } },
{ "type": "Feature", "properties": { "id": null, "Name": "23KMP", "description": null, "timestamp": null, "begin": null, "end": null, "altitudeMode": null, "tessellate": -1, "extrude": 0, "visibility": -1, "drawOrder": null, "icon": null, "Name_T": "T23KMP", "Tiles": "23KMP" }, "geometry": { "type": "MultiPolygon", "coordinates": [ [ [ [ -45.979840458999902, -23.506931927, 0.0 ], [ -44.9044004369999, -23.509984717999899, 0.0 ], [ -44.9036647739999, -24.501727645, 0.0 ], [ -45.987379103, -24.498529842, 0.0 ], [ -45.979840458999902, -23.506931927, 0.0 ] ] ] ] } },
{ "type": "Feature", "properties": { "id": null, "Name": "28PBB", "description": null, "timestamp": null, "begin": null, "end": null, "altitudeMode": null, "tessellate": -1, "extrude": 0, "visibility": -1, "drawOrder": null, "icon": null, "Name_T": "T28PBB", "Tiles": "28PBB" }, "geometry": { "type": "MultiPolygon", "coordinates": [ [ [ [ -17.794457091, 15.359608801, 0.0 ], [ -16.772206158, 15.3700883770001, 0.0 ], [ -16.764121373, 14.377826199, 0.0 ], [ -17.7817208119999, 14.368052294000099, 0.0 ], [ -17.794457091, 15.359608801, 0.0 ] ] ] ] } },
{ "type": "Feature", "properties": { "id": null, "Name": "28PCV", "description": null, "timestamp": null, "begin": null, "end": null, "altitudeMode": null, "tessellate": -1, "extrude": 0, "visibility": -1, "drawOrder": null, "icon": null, "Name_T": "T28PCV", "Tiles": "28PCV" }, "geometry": { "type": "MultiPolygon", "coordinates": [ [ [ [ -16.848272302999899, 13.561609653000099, 0.0 ], [ -15.833693029, 13.567059214, 0.0 ], [ -15.8303668569999, 12.5742798530001, 0.0 ], [ -16.840902330999899, 12.569242166, 0.0 ], [ -16.848272302999899, 13.561609653000099, 0.0 ] ] ] ] } },
{ "type": "Feature", "properties": { "id": null, "Name": "28PDA", "description": null, "timestamp": null, "begin": null, "end": null, "altitudeMode": null, "tessellate": -1, "extrude": 0, "visibility": -1, "drawOrder": null, "icon": null, "Name_T": "T28PDA", "Tiles": "28PDA" }, "geometry": { "type": "MultiPolygon", "coordinates": [ [ [ [ -15.928261439, 14.4709990170001, 0.0 ], [ -14.909433716, 14.472812699, 0.0 ], [ -14.909821021, 13.4800009480001, 0.0 ], [ -15.9242924239999, 13.478316386000101, 0.0 ], [ -15.928261439, 14.4709990170001, 0.0 ] ] ] ] } },
{ "type": "Feature", "properties": { "id": null, "Name": "28PDB", "description": null, "timestamp": null, "begin": null, "end": null, "altitudeMode": null, "tessellate": -1, "extrude": 0, "visibility": -1, "drawOrder": null, "icon": null, "Name_T": "T28PDB", "Tiles": "28PDB" }, "geometry": { "type": "MultiPolygon", "coordinates": [ [ [ [ -15.932149696, 15.375188753, 0.0 ], [ -14.90905429, 15.377121017, 0.0 ], [ -14.909469445, 14.3843852410001, 0.0 ], [ -15.92789529, 14.382583104, 0.0 ], [ -15.932149696, 15.375188753, 0.0 ] ] ] ] } },
{ "type": "Feature", "properties": { "id": null, "Name": "28PDC", "description": null, "timestamp": null, "begin": null, "end": null, "altitudeMode": null, "tessellate": -1, "extrude": 0, "visibility": -1, "drawOrder": null, "icon": null, "Name_T": "T28PDC", "Tiles": "28PDC" }, "geometry": { "type": "MultiPolygon", "coordinates": [ [ [ [ -15.936300786999899, 16.278761841000101, 0.0 ], [ -14.908649215, 16.280813604000102, 0.0 ], [ -14.9090927579999, 15.2881580600001, 0.0 ], [ -15.931755484999901, 15.286237505, 0.0 ], [ -15.936300786999899, 16.278761841000101, 0.0 ] ] ] ] } },
{ "type": "Feature", "properties": { "id": null, "Name": "28PDV", "description": null, "timestamp": null, "begin": null, "end": null, "altitudeMode": null, "tessellate": -1, "extrude": 0, "visibility": -1, "drawOrder": null, "icon": null, "Name_T": "T28PDV", "Tiles": "28PDV" }, "geometry": { "type": "MultiPolygon", "coordinates": [ [ [ [ -15.924633394, 13.5667389590001, 0.0 ], [ -14.909787749, 13.5684349790001, 0.0 ], [ -14.910147717, 12.5755516350001, 0.0 ], [ -15.920944517999899, 12.573983802, 0.0 ], [ -15.924633394, 13.5667389590001, 0.0 ] ] ] ] } },
{ "type": "Feature", "properties": { "id": null, "Name": "28PEA", "description": null, "timestamp": null, "begin": null, "end": null, "altitudeMode": null, "tessellate": -1, "extrude": 0, "visibility": -1, "drawOrder": null, "icon": null, "Name_T": "T28PEA", "Tiles": "28PEA" }, "geometry": { "type": "MultiPolygon", "coordinates": [ [ [ [ -15.000185587, 14.47283013, 0.0 ], [ -13.981371769, 14.470625149000099, 0.0 ], [ -13.985727015, 13.477969135, 0.0 ], [ -15.000184793, 13.4800171380001, 0.0 ], [ -15.000185587, 14.47283013, 0.0 ] ] ] ] } },
{ "type": "Feature", "properties": { "id": null, "Name": "28PEB", "description": null, "timestamp": null, "begin": null, "end": null, "altitudeMode": null, "tessellate": -1, "extrude": 0, "visibility": -1, "drawOrder": null, "icon": null, "Name_T": "T28PEB", "Tiles": "28PEB" }, "geometry": { "type": "MultiPolygon", "coordinates": [ [ [ [ -15.0001863639999, 15.377139587, 0.0 ], [ -13.977105141, 15.3747904410001, 0.0 ], [ -13.981773548, 14.382211616000101, 0.0 ], [ -15.000185514, 14.384402561000099, 0.0 ], [ -15.0001863639999, 15.377139587, 0.0 ] ] ] ] } },
{ "type": "Feature", "properties": { "id": null, "Name": "28PEV", "description": null, "timestamp": null, "begin": null, "end": null, "altitudeMode": null, "tessellate": -1, "extrude": 0, "visibility": -1, "drawOrder": null, "icon": null, "Name_T": "T28PEV", "Tiles": "28PEV" }, "geometry": { "type": "MultiPolygon", "coordinates": [ [ [ [ -15.000184861, 13.568451278000101, 0.0 ], [ -13.985352865, 13.566389346000101, 0.0 ], [ -13.989400713, 12.573660613000101, 0.0 ], [ -15.000184123999899, 12.575566702000099, 0.0 ], [ -15.000184861, 13.568451278000101, 0.0 ] ] ] ] } },
{ "type": "Feature", "properties": { "id": null, "Name": "28PFB", "description": null, "timestamp": null, "begin": null, "end": null, "altitudeMode": null, "tessellate": -1, "extrude": 0, "visibility": -1, "drawOrder": null, "icon": null, "Name_T": "T28PFB", "Tiles": "28PFB" }, "geometry": { "type": "MultiPolygon", "coordinates": [ [ [ [ -14.0682229789999, 15.375190312, 0.0 ], [ -13.04544715, 15.368562776, 0.0 ], [ -13.054362576, 14.376403333, 0.0 ], [ -14.072475685, 14.382584559000099, 0.0 ], [ -14.0682229789999, 15.375190312, 0.0 ] ] ] ] } },
{ "type": "Feature", "properties": { "id": null, "Name": "28PFV", "description": null, "timestamp": null, "begin": null, "end": null, "altitudeMode": null, "tessellate": -1, "extrude": 0, "visibility": -1, "drawOrder": null, "icon": null, "Name_T": "T28PFV", "Tiles": "28PFV" }, "geometry": { "type": "MultiPolygon", "coordinates": [ [ [ [ -14.075736278, 13.566740328, 0.0 ], [ -13.061198174, 13.560923068, 0.0 ], [ -13.068928597, 12.568607471000099, 0.0 ], [ -14.0794236789999, 12.573985067, 0.0 ], [ -14.075736278, 13.566740328, 0.0 ] ] ] ] } },
{ "type": "Feature", "properties": { "id": null, "Name": "28PGA", "description": null, "timestamp": null, "begin": null, "end": null, "altitudeMode": null, "tessellate": -1, "extrude": 0, "visibility": -1, "drawOrder": null, "icon": null, "Name_T": "T28PGA", "Tiles": "28PGA" }, "geometry": { "type": "MultiPolygon", "coordinates": [ [ [ [ -13.144850267, 14.465516799000101, 0.0 ], [ -12.1269199029999, 14.455290489, 0.0 ], [ -12.1391861619999, 13.46372611, 0.0 ], [ -13.1527782969999, 13.473224449, 0.0 ], [ -13.144850267, 14.465516799000101, 0.0 ] ] ] ] } },
{ "type": "Feature", "properties": { "id": null, "Name": "28QCD", "description": null, "timestamp": null, "begin": null, "end": null, "altitudeMode": null, "tessellate": -1, "extrude": 0, "visibility": -1, "drawOrder": null, "icon": null, "Name_T": "T28QCD", "Tiles": "28QCD" }, "geometry": { "type": "MultiPolygon", "coordinates": [ [ [ [ -16.880421645, 17.176229137000099, 0.0 ], [ -15.848202735, 17.183209298000101, 0.0 ], [ -15.843836355, 16.19074563, 0.0 ], [ -16.870747099, 16.184190765, 0.0 ], [ -16.880421645, 17.176229137000099, 0.0 ] ] ] ] } },
{ "type": "Feature", "properties": { "id": null, "Name": "28QDD", "description": null, "timestamp": null, "begin": null, "end": null, "altitudeMode": null, "tessellate": -1, "extrude": 0, "visibility": -1, "drawOrder": null, "icon": null, "Name_T": "T28QDD", "Tiles": "28QDD" }, "geometry": { "type": "MultiPolygon", "coordinates": [ [ [ [ -15.940725302, 17.182799091, 0.0 ], [ -14.908217458, 17.184971484000101, 0.0 ], [ -14.908690003999901, 16.1924004430001, 0.0 ], [ -15.9358827959999, 16.190360417, 0.0 ], [ -15.940725302, 17.182799091, 0.0 ] ] ] ] } },
{ "type": "Feature", "properties": { "id": null, "Name": "29NLJ", "description": null, "timestamp": null, "begin": null, "end": null, "altitudeMode": null, "tessellate": -1, "extrude": 0, "visibility": -1, "drawOrder": null, "icon": null, "Name_T": "T29NLJ", "Tiles": "29NLJ" }, "geometry": { "type": "MultiPolygon", "coordinates": [ [ [ [ -10.815217533, 8.137976445000049, 0.0 ], [ -9.81877511899995, 8.141208532000061, 0.0 ], [ -9.816884782999979, 7.14809208400004, 0.0 ], [ -10.811028899999901, 7.14525850000007, 0.0 ], [ -10.815217533, 8.137976445000049, 0.0 ] ] ] ] } },
{ "type": "Feature", "properties": { "id": null, "Name": "31PGR", "description": null, "timestamp": null, "begin": null, "end": null, "altitudeMode": null, "tessellate": -1, "extrude": 0, "visibility": -1, "drawOrder": null, "icon": null, "Name_T": "T31PGR", "Tiles": "31PGR" }, "geometry": { "type": "MultiPolygon", "coordinates": [ [ [ [ 4.85514973300008, 14.465516799000101, 0.0 ], [ 5.87308009700007, 14.455290489, 0.0 ], [ 5.86081383800007, 13.46372611, 0.0 ], [ 4.84722170300006, 13.473224449, 0.0 ], [ 4.85514973300008, 14.465516799000101, 0.0 ] ] ] ] } },
{ "type": "Feature", "properties": { "id": null, "Name": "33KXP", "description": null, "timestamp": null, "begin": null, "end": null, "altitudeMode": null, "tessellate": -1, "extrude": 0, "visibility": -1, "drawOrder": null, "icon": null, "Name_T": "T33KXP", "Tiles": "33KXP" }, "geometry": { "type": "MultiPolygon", "coordinates": [ [ [ [ 15.9794487240001, -23.506934391, 0.0 ], [ 17.054487335, -23.496463834999901, 0.0 ], [ 17.070283452000101, -24.487564554999899, 0.0 ], [ 15.9869843550001, -24.498532423, 0.0 ], [ 15.9794487240001, -23.506934391, 0.0 ] ] ] ] } },
{ "type": "Feature", "properties": { "id": null, "Name": "33NYC", "description": null, "timestamp": null, "begin": null, "end": null, "altitudeMode": null, "tessellate": -1, "extrude": 0, "visibility": -1, "drawOrder": null, "icon": null, "Name_T": "T33NYC", "Tiles": "33NYC" }, "geometry": { "type": "MultiPolygon", "coordinates": [ [ [ [ 16.798696514, 2.71282940600003, 0.0 ], [ 17.785732296, 2.71094955200005, 0.0 ], [ 17.783878097000098, 1.71875060800005, 0.0 ], [ 16.797498191, 1.71994193000006, 0.0 ], [ 16.798696514, 2.71282940600003, 0.0 ] ] ] ] } },
{ "type": "Feature", "properties": { "id": null, "Name": "35JLM", "description": null, "timestamp": null, "begin": null, "end": null, "altitudeMode": null, "tessellate": -1, "extrude": 0, "visibility": -1, "drawOrder": null, "icon": null, "Name_T": "T35JLM", "Tiles": "35JLM" }, "geometry": { "type": "MultiPolygon", "coordinates": [ [ [ [ 25.013387437000102, -25.302805695, 0.0 ], [ 26.1038678990001, -25.313468321, 0.0 ], [ 26.096377863, -26.304850168, 0.0 ], [ 24.996793699, -26.293708298999899, 0.0 ], [ 25.013387437000102, -25.302805695, 0.0 ] ] ] ] } },
{ "type": "Feature", "properties": { "id": null, "Name": "35NNB", "description": null, "timestamp": null, "begin": null, "end": null, "altitudeMode": null, "tessellate": -1, "extrude": 0, "visibility": -1, "drawOrder": null, "icon": null, "Name_T": "T35NNB", "Tiles": "35NNB" }, "geometry": { "type": "MultiPolygon", "coordinates": [ [ [ [ 26.9998201760001, 1.80981858900003, 0.0 ], [ 27.987005034, 1.80954843400002, 0.0 ], [ 27.986615541, 0.816307194000046, 0.0 ], [ 26.999820247000098, 0.81642903300002, 0.0 ], [ 26.9998201760001, 1.80981858900003, 0.0 ] ] ] ] } },
{ "type": "Feature", "properties": { "id": null, "Name": "36PYT", "description": null, "timestamp": null, "begin": null, "end": null, "altitudeMode": null, "tessellate": -1, "extrude": 0, "visibility": -1, "drawOrder": null, "icon": null, "Name_T": "T36PYT", "Tiles": "36PYT" }, "geometry": { "type": "MultiPolygon", "coordinates": [ [ [ [ 34.834934053, 11.754143685, 0.0 ], [ 35.841802069, 11.7458930620001, 0.0 ], [ 35.832088553000098, 10.7541024220001, 0.0 ], [ 34.828656123, 10.761639627, 0.0 ], [ 34.834934053, 11.754143685, 0.0 ] ] ] ] } },
{ "type": "Feature", "properties": { "id": null, "Name": "36PYU", "description": null, "timestamp": null, "begin": null, "end": null, "altitudeMode": null, "tessellate": -1, "extrude": 0, "visibility": -1, "drawOrder": null, "icon": null, "Name_T": "T36PYU", "Tiles": "36PYU" }, "geometry": { "type": "MultiPolygon", "coordinates": [ [ [ [ 34.841169861, 12.658181429, 0.0 ], [ 35.851450318, 12.649276666, 0.0 ], [ 35.840899804000102, 11.657556288, 0.0 ], [ 34.834350908, 11.665743174000101, 0.0 ], [ 34.841169861, 12.658181429, 0.0 ] ] ] ] } },
{ "type": "Feature", "properties": { "id": null, "Name": "36PZU", "description": null, "timestamp": null, "begin": null, "end": null, "altitudeMode": null, "tessellate": -1, "extrude": 0, "visibility": -1, "drawOrder": null, "icon": null, "Name_T": "T36PZU", "Tiles": "36PZU" }, "geometry": { "type": "MultiPolygon", "coordinates": [ [ [ [ 35.761496639, 12.6502249590001, 0.0 ], [ 36.770939317000099, 12.637841465000101, 0.0 ], [ 36.757003809, 11.6470429, 0.0 ], [ 35.751277915000102, 11.658428134000101, 0.0 ], [ 35.761496639, 12.6502249590001, 0.0 ] ] ] ] } },
{ "type": "Feature", "properties": { "id": null, "Name": "37PBQ", "description": null, "timestamp": null, "begin": null, "end": null, "altitudeMode": null, "tessellate": -1, "extrude": 0, "visibility": -1, "drawOrder": null, "icon": null, "Name_T": "T37PBQ", "Tiles": "37PBQ" }, "geometry": { "type": "MultiPolygon", "coordinates": [ [ [ [ 36.22804439, 13.553063731000099, 0.0 ], [ 37.242077348000102, 13.5622621540001, 0.0 ], [ 37.249087514000102, 12.569845352000099, 0.0 ], [ 36.239088021, 12.561342107, 0.0 ], [ 36.22804439, 13.553063731000099, 0.0 ] ] ] ] } },
{ "type": "Feature", "properties": { "id": null, "Name": "37PBR", "description": null, "timestamp": null, "begin": null, "end": null, "altitudeMode": null, "tessellate": -1, "extrude": 0, "visibility": -1, "drawOrder": null, "icon": null, "Name_T": "T37PBR", "Tiles": "37PBR" }, "geometry": { "type": "MultiPolygon", "coordinates": [ [ [ [ 36.217183050000102, 14.456375129, 0.0 ], [ 37.23518282, 14.46621164, 0.0 ], [ 37.242725309, 13.473869825000101, 0.0 ], [ 36.229065166000098, 13.464733542, 0.0 ], [ 36.217183050000102, 14.456375129, 0.0 ] ] ] ] } },
{ "type": "Feature", "properties": { "id": null, "Name": "37PCR", "description": null, "timestamp": null, "begin": null, "end": null, "altitudeMode": null, "tessellate": -1, "extrude": 0, "visibility": -1, "drawOrder": null, "icon": null, "Name_T": "T37PCR", "Tiles": "37PCR" }, "geometry": { "type": "MultiPolygon", "coordinates": [ [ [ [ 37.144479301, 14.4655138740001, 0.0 ], [ 38.1630356470001, 14.47134149, 0.0 ], [ 38.166614415, 13.4786344780001, 0.0 ], [ 37.152408915000102, 13.4732217330001, 0.0 ], [ 37.144479301, 14.4655138740001, 0.0 ] ] ] ] } },
{ "type": "Feature", "properties": { "id": null, "Name": "37PCS", "description": null, "timestamp": null, "begin": null, "end": null, "altitudeMode": null, "tessellate": -1, "extrude": 0, "visibility": -1, "drawOrder": null, "icon": null, "Name_T": "T37PCS", "Tiles": "37PCS" }, "geometry": { "type": "MultiPolygon", "coordinates": [ [ [ [ 37.136711086, 15.369344993, 0.0 ], [ 38.159529696, 15.375553618, 0.0 ], [ 38.1633657960001, 14.3829233980001, 0.0 ], [ 37.145210821, 14.377132874, 0.0 ], [ 37.136711086, 15.369344993, 0.0 ] ] ] ] } },
{ "type": "Feature", "properties": { "id": null, "Name": "37PDR", "description": null, "timestamp": null, "begin": null, "end": null, "altitudeMode": null, "tessellate": -1, "extrude": 0, "visibility": -1, "drawOrder": null, "icon": null, "Name_T": "T37PDR", "Tiles": "37PDR" }, "geometry": { "type": "MultiPolygon", "coordinates": [ [ [ [ 38.071738561000103, 14.4709990170001, 0.0 ], [ 39.090566284, 14.472812699, 0.0 ], [ 39.090178979, 13.4800009480001, 0.0 ], [ 38.075707576000099, 13.478316386000101, 0.0 ], [ 38.071738561000103, 14.4709990170001, 0.0 ] ] ] ] } },
{ "type": "Feature", "properties": { "id": null, "Name": "37PEM", "description": null, "timestamp": null, "begin": null, "end": null, "altitudeMode": null, "tessellate": -1, "extrude": 0, "visibility": -1, "drawOrder": null, "icon": null, "Name_T": "T37PEM", "Tiles": "37PEM" }, "geometry": { "type": "MultiPolygon", "coordinates": [ [ [ [ 38.999817012000101, 10.855481222, 0.0 ], [ 40.004368206, 10.853842437, 0.0 ], [ 40.001212264000102, 9.860923092000061, 0.0 ], [ 38.999817587000102, 9.862408926000059, 0.0 ], [ 38.999817012000101, 10.855481222, 0.0 ] ] ] ] } },
{ "type": "Feature", "properties": { "id": null, "Name": "37PEN", "description": null, "timestamp": null, "begin": null, "end": null, "altitudeMode": null, "tessellate": -1, "extrude": 0, "visibility": -1, "drawOrder": null, "icon": null, "Name_T": "T37PEN", "Tiles": "37PEN" }, "geometry": { "type": "MultiPolygon", "coordinates": [ [ [ [ 38.999816437, 11.760044028, 0.0 ], [ 40.0075228440001, 11.7582650730001, 0.0 ], [ 40.00407413, 10.76540463, 0.0 ], [ 38.999817065000101, 10.767029753, 0.0 ], [ 38.999816437, 11.760044028, 0.0 ] ] ] ] } },
{ "type": "Feature", "properties": { "id": null, "Name": "37PEP", "description": null, "timestamp": null, "begin": null, "end": null, "altitudeMode": null, "tessellate": -1, "extrude": 0, "visibility": -1, "drawOrder": null, "icon": null, "Name_T": "T37PEP", "Tiles": "37PEP" }, "geometry": { "type": "MultiPolygon", "coordinates": [ [ [ [ 38.999815813000097, 12.6645495990001, 0.0 ], [ 40.010948437, 12.662629591, 0.0 ], [ 40.007202499000101, 11.669832721, 0.0 ], [ 38.999816495000097, 11.671597933, 0.0 ], [ 38.999815813000097, 12.6645495990001, 0.0 ] ] ] ] } },
{ "type": "Feature", "properties": { "id": null, "Name": "37PEQ", "description": null, "timestamp": null, "begin": null, "end": null, "altitudeMode": null, "tessellate": -1, "extrude": 0, "visibility": -1, "drawOrder": null, "icon": null, "Name_T": "T37PEQ", "Tiles": "37PEQ" }, "geometry": { "type": "MultiPolygon", "coordinates": [ [ [ [ 38.999815139000098, 13.568451278000101, 0.0 ], [ 40.014647135000097, 13.566389346000101, 0.0 ], [ 40.010599287, 12.573660613000101, 0.0 ], [ 38.999815876000099, 12.575566702000099, 0.0 ], [ 38.999815139000098, 13.568451278000101, 0.0 ] ] ] ] } },
{ "type": "Feature", "properties": { "id": null, "Name": "37PER", "description": null, "timestamp": null, "begin": null, "end": null, "altitudeMode": null, "tessellate": -1, "extrude": 0, "visibility": -1, "drawOrder": null, "icon": null, "Name_T": "T37PER", "Tiles": "37PER" }, "geometry": { "type": "MultiPolygon", "coordinates": [ [ [ [ 38.999814413, 14.47283013, 0.0 ], [ 40.018628231, 14.470625149000099, 0.0 ], [ 40.014272985, 13.477969135, 0.0 ], [ 38.999815207, 13.4800171380001, 0.0 ], [ 38.999814413, 14.47283013, 0.0 ] ] ] ] } },
{ "type": "Feature", "properties": { "id": null, "Name": "37PFM", "description": null, "timestamp": null, "begin": null, "end": null, "altitudeMode": null, "tessellate": -1, "extrude": 0, "visibility": -1, "drawOrder": null, "icon": null, "Name_T": "T37PFM", "Tiles": "37PFM" }, "geometry": { "type": "MultiPolygon", "coordinates": [ [ [ [ 39.914900098, 10.854121391, 0.0 ], [ 40.919171426, 10.84949792, 0.0 ], [ 40.9131442340001, 9.85698404900006, 0.0 ], [ 39.912025185000097, 9.861176011000049, 0.0 ], [ 39.914900098, 10.854121391, 0.0 ] ] ] ] } },
{ "type": "Feature", "properties": { "id": null, "Name": "37PFN", "description": null, "timestamp": null, "begin": null, "end": null, "altitudeMode": null, "tessellate": -1, "extrude": 0, "visibility": -1, "drawOrder": null, "icon": null, "Name_T": "T37PFN", "Tiles": "37PFN" }, "geometry": { "type": "MultiPolygon", "coordinates": [ [ [ [ 39.917773826, 11.758567886, 0.0 ], [ 40.925196099000097, 11.7535489630001, 0.0 ], [ 40.918609804, 10.76109633, 0.0 ], [ 39.914632209, 10.7656812590001, 0.0 ], [ 39.917773826, 11.758567886, 0.0 ] ] ] ] } },
{ "type": "Feature", "properties": { "id": null, "Name": "43VDJ", "description": null, "timestamp": null, "begin": null, "end": null, "altitudeMode": null, "tessellate": -1, "extrude": 0, "visibility": -1, "drawOrder": null, "icon": null, "Name_T": "T43VDJ", "Tiles": "43VDJ" }, "geometry": { "type": "MultiPolygon", "coordinates": [ [ [ [ 73.076020384000103, 62.218429074, 0.0 ], [ 75.187767660000105, 62.231643042, 0.0 ], [ 75.181862076000101, 61.245981788000101, 0.0 ], [ 73.136489577000106, 61.233299178, 0.0 ], [ 73.076020384000103, 62.218429074, 0.0 ] ] ] ] } },
{ "type": "Feature", "properties": { "id": null, "Name": "50LKR", "description": null, "timestamp": null, "begin": null, "end": null, "altitudeMode": null, "tessellate": -1, "extrude": 0, "visibility": -1, "drawOrder": null, "icon": null, "Name_T": "T50LKR", "Tiles": "50LKR" }, "geometry": { "type": "MultiPolygon", "coordinates": [ [ [ [ 114.277576629, -8.132907839999969, 0.0 ], [ 115.273518318, -8.13836343999998, 0.0 ], [ 115.268998124, -9.13107848199996, 0.0 ], [ 114.270455345, -9.124947062999979, 0.0 ], [ 114.277576629, -8.132907839999969, 0.0 ] ] ] ] } },
{ "type": "Feature", "properties": { "id": null, "Name": "50NLK", "description": null, "timestamp": null, "begin": null, "end": null, "altitudeMode": null, "tessellate": -1, "extrude": 0, "visibility": -1, "drawOrder": null, "icon": null, "Name_T": "T50NLK", "Tiles": "50NLK" }, "geometry": { "type": "MultiPolygon", "coordinates": [ [ [ [ 115.19737216, 4.52167999800002, 0.0 ], [ 116.186906606, 4.52346777900004, 0.0 ], [ 116.187891767, 3.53022273700003, 0.0 ], [ 115.199555116, 3.52882859900006, 0.0 ], [ 115.19737216, 4.52167999800002, 0.0 ] ] ] ] } },
{ "type": "Feature", "properties": { "id": null, "Name": "50NMJ", "description": null, "timestamp": null, "begin": null, "end": null, "altitudeMode": null, "tessellate": -1, "extrude": 0, "visibility": -1, "drawOrder": null, "icon": null, "Name_T": "T50NMJ", "Tiles": "50NMJ" }, "geometry": { "type": "MultiPolygon", "coordinates": [ [ [ [ 116.099218848, 3.61860907600004, 0.0 ], [ 117.087884712, 3.61905385700004, 0.0 ], [ 117.087802186, 2.62568983200003, 0.0 ], [ 116.100064566, 2.62536733000007, 0.0 ], [ 116.099218848, 3.61860907600004, 0.0 ] ] ] ] } },
{ "type": "Feature", "properties": { "id": null, "Name": "50NMK", "description": null, "timestamp": null, "begin": null, "end": null, "altitudeMode": null, "tessellate": -1, "extrude": 0, "visibility": -1, "drawOrder": null, "icon": null, "Name_T": "T50NMK", "Tiles": "50NMK" }, "geometry": { "type": "MultiPolygon", "coordinates": [ [ [ [ 116.098212562, 4.52336271700005, 0.0 ], [ 117.087982907, 4.52391910600005, 0.0 ], [ 117.087876291, 3.53057468800006, 0.0 ], [ 116.099305153, 3.53014080800006, 0.0 ], [ 116.098212562, 4.52336271700005, 0.0 ] ] ] ] } },
{ "type": "Feature", "properties": { "id": null, "Name": "50SNJ", "description": null, "timestamp": null, "begin": null, "end": null, "altitudeMode": null, "tessellate": -1, "extrude": 0, "visibility": -1, "drawOrder": null, "icon": null, "Name_T": "T50SNJ", "Tiles": "50SNJ" }, "geometry": { "type": "MultiPolygon", "coordinates": [ [ [ [ 116.999766546, 39.750267927, 0.0 ], [ 118.281280349, 39.743196192, 0.0 ], [ 118.263403219, 38.754036048, 0.0 ], [ 116.999769804, 38.760864457, 0.0 ], [ 116.999766546, 39.750267927, 0.0 ] ] ] ] } }
]
}
